POI_ID *,LATITUDE,LONGTITUDE,STREET_NO,STREET,CITY,PROVINCE,COUNTRY,POSTAL_CODE,BRAND_NAME,FEATURE_NAME
11026202774,51.4739,-0.499,,T5 ACCESS,STAINES,,GB,TW19 6,HEATHROW TERM 5,LHR
11301749739,36.155777,-5.348433,,WINSTON CHURCHILL AVENUE,LA LÍNEA DE LA CONCEPCIÓN,ANDALUCÍA,ES,,NORTH FRONT AIRPORT,GIB
11301749740,47.4534,8.57601,,FLUGEHAFENSTRASSE,KLOTEN,UND,CH,,ZÜRICH-KLOTEN,ZRH
11301749741,46.22191,7.33156,,ROUTE DE L'AÉROPORT,SION,FRE,CH,,CIVIL DE SION-CHÂTEAUNEUF,SIR
11301749742,40.72562,-7.89098,,N568,VISEU,,PT,,VISEU,VSE
11301749743,41.27631,-7.7172,,N313,VILA REAL,,PT,,VILA REAL,LPVR
11301749744,38.84191,-9.34113,,N9,SINTRA,,PT,,SINTRA,LPST
11301749745,39.47315,-8.36147,,N313,VILA NOVA DE BARQUINHA,,PT,,TANCOS,LPTN
11301749746,38.66957,-28.17416,,,FAJA DE SANTO AMARO,AZORES,PT,,SÄO JORGE,LPSJ
11301749747,38.76976,-9.12474,,AVENIDA DE BERLIM,LISBOA,,PT,,PORTELA,LIS
11301749748,33.07032,-16.34523,,,PORTO SANTO,MADEIRA,PT,,PORTO SANTO,PXO
11301749749,41.23836,-8.66358,,AVENIDA AEROPORTE,,,PT,,FRANCISCO SÁ CARNEIRO,OPO
11301749750,37.14919,-8.57684,,N531-1,PORTIMÄO,,PT,,PORTIMÄO,LPPM
11301749751,38.55345,-28.44105,,,,AZORES,PT,,PICO ISLAND,PIX
11301749752,37.7464,-25.69108,,,PONTA DELGADA,AZORES,PT,,PONTA DELGADA,PDL
11301749753,40.89995,-8.64796,,N109,CARVALEIRA,,PT,,OVAR,LPOV
11301749754,38.72124,-9.0008,,N501,ALCOCHETE,,PT,,MONTIJO,PAF
11301749755,39.81916,-8.87765,,N1183,LEIRIA,,PT,,MONTE REAL,LPMR
11301749756,32.6882,-16.78466,,,FUNCHAL,MADEIRA,PT,,FUNCHAL,FNC
11301749757,38.39668,-28.25174,,,TERCEIRA,AZORES,PT,,AEROPORTO DAS LAJES,TER
11301749758,38.5442,-28.6289,,,,AZORES,PT,,HORTA,HOR
11301749759,39.05034,-28.00859,,,GRACIOSA ISLAND,AZORES,PT,,GRACIOSA ISLAND,GRW
11301749760,39.45527,-31.1312,,,,AZORES,PT,,SANTA CRUZ,FLW
11301749761,37.02325,-7.97044,,N125-10,FARO,FLORES ISLAND,PT,,FARO,FAO
11301749762,38.53367,-7.8873,,N254,ÉVORA,,PT,,ÉVORA,LPEV
11301749763,40.27045,-7.48405,,E-802,COVILHÄ,,PT,,COVILHÄ,LPCV
11301749764,38.72488,-9.35275,,N247-5,CASCAIS,,PT,,CASCAIS,LPCS
11301749765,40.15714,-8.46447,,,COIMBRA,,PT,,COIMBRA,LPCO
11301749766,41.59131,-8.43877,,N1280,BRAGA,,PT,,BRAGA,LPBR
11301749767,38.0731,-7.94565,,N528-2,SÄO BRISSOS,,PT,,BEJA,LPBJ
11301749768,41.85784,-6.70259,,N218-3,BRAGANÇA,,PT,,BRAGANCA,LPBG
11301749769,36.97227,-25.16465,,,SANTA MARIA,AZORES,PT,,SANTA MARIA,SMA
11301749770,40.6627,-8.73869,,RUA DA BASE AEREA,SÄO JACINTO,,PT,,AVEIRO,LPAV
11301749771,38.88908,-9.04212,,N116,VILA FRANCA DE XIRA,,PT,,ALVERCA,LPAR
11301749772,47.38161,9.69853,,SCHOLLENSTRASSE,HOHENEMS,VORARLBERG,AT,,DORNBIRN,HOH
11301749773,41.522354,2.098376,,CARRERA DE BELLATERRA,SABADELL,CATALUNYA,ES,,SABADELL,QSA
11301749774,43.09391,12.49878,,SP247,PERUGIA,ABRUZZO,IT,,PERUGIA SANT' EGIDIO,PEG
11301749775,42.425,12.0673,,STRADA PROVINCIALE TUSCANESE,VITERBO,,IT,,VITERBO,LIRV
11301749776,41.948356,12.506707,,VIA SALARIA,ROMA,,IT,,URBE,UBE
11301749777,42.76221,11.08484,,VIA ORCAGNA,,,IT,,GROSSETO,GRS
11301749778,43.80103,11.20172,,A11,PERETOLA,TOSCANA,IT,,AMERIGO VESPUCCI AIRPORT,FLR
11301749779,43.70004,10.39879,,STRADA DI GRANDE COMUNICAZIONE,PISA,TOSCANA,IT,,GALILEO GALILEI,PSA
11301749780,40.8758,14.28417,,V LE FULCO RUFFO DI CALABRIA,NAPOLI,CAMPANIA,IT,,CAPODICHINO,NAP
11301749781,41.055,14.0948,,,GRAZZANISE,,IT,,GRAZZANISE,LIRM
11301749782,41.537705,12.918139,,STRADA AEROPORTO,LATINA,,IT,,LATINA,LIRL
11301749783,40.62378,14.90554,,SP13,PONTECAGNANO FAIANO,,IT,,PONTECAGNANO,QSR
11301749784,42.76438,10.235701,,,CAMPO NELL'ELBA,TOSCANA,IT,,MARINA DI CAMPO,LIRJ
11301749785,41.9927,12.74666,,SS636,GUIDONIA MONTECELIO,,IT,,GUIDONIA,LIRG
11301749786,41.78795,12.25778,,,FIUMICINO,LAZIO,IT,,LEONARDO DA VINCI,FCO
11301749787,41.6685,12.43356,,VIA ARNO,POMEZIA,,IT,,PRATICA DI MARE,LIRE
11301749788,41.79716,12.58748,,VIA APPIA NUOVA,ROMA,LAZIO,IT,,CIAMPINO,CIA
11301749789,43.25659,11.24761,,SP105,SOVICILLE,,IT,,AMPUGNANO,SAY
11301749790,43.82562,10.57091,,A11,CAPANNORI,,IT,,LUCCA TASSIGNANO,LCV
11301749791,45.50302,12.33618,,V LE GALILEO GALILEI,VENEZIA,VENETO,IT,,MARCO POLO,VCE
11301749792,43.60548,13.35478,,VIA CONSORZIO,CHIARAVALLE,MARCHE,IT,,ANCONA FALCONARA,AOI
11301749793,45.40107,10.90867,,VAI AEROPUERTO,VILLAFRANCA DI VERONA,VENETO,IT,,VILLAFRANCA,VRN
11301749794,45.4003,11.84998,,SP89,PADOVA,PADUA,IT,,PADOVA,LIPU
11301749795,45.56864,11.53639,,STRADA SANT'ANTONIO,VICENZA,,IT,,VICENZA,LIPT
11301749796,45.69314,12.09766,,VIA GIUSEPPE TONIOLO,ISTRANA,,IT,,ISTRANA,LIPS
11301749797,44.02314,12.62018,,STRADA STATALE ADRIATICA,RIMINI,EMILIA ROMAGNA,IT,,FEDERICO FELLINI,RMI
11301749798,45.82022,13.48198,,SS14,RONCHI DEI LEGIONARI,FRIULI-VENEZIA,IT,,FRIULI VENEZIA GIULIA,TRS
11301749799,45.425399,10.32492,,,MONTICHIARI,LOMBARDIA,IT,,GABRIELLE D'ANNUNZIO,VBS
11301749800,45.4684,10.9294,,VIA BOSCOMANTICO,VERONA,,IT,,VERONA BOSCOMANTICO,LIPN
11301749801,45.424,10.28416,,SP66,GHEDI,,IT,,GHEDI,LIPL
11301749802,44.19931,12.06905,,VIA FONTANELLE,FORLÌ,EMILIA ROMAGNA,IT,,LUIGI RIDOLFI,FRL
11301749803,45.65534,12.20523,,STRADA LOALESE,,VENETO,IT,,TREVISO,TSF
11301749804,45.97875,13.03689,,SS13,CODROIPO,,IT,,RIVOLTO,LIPI
11301749805,44.52684,11.29446,,VIA DEL'AEROPORTO,BOLOGNA,EMILIA ROMAGNA,IT,,BORGO PANIGALE,BLQ
11301749806,44.21246,12.31435,,SP33TER,CERVIA,,IT,,CERVIA,LIPC
11301749807,46.46378,11.33033,,VIA AEROPORTO,BOLZANO,TRENTINO-ALTO,IT,,BOLZANO DOLOMITI,BZO
11301749808,46.03458,12.6162,,SP7,ROVERDO IN PIANO,,IT,,AVIANO AB,AVB
11301749809,44.54557,7.615788,,SP20,SAVIGLIANO,,IT,,LEVALDIGI,CUF
11301749810,44.7394,7.3689,,VIA ORMETTI,BARGE,,IT,,AOSTA,LIMW
11301749811,44.90741,9.7213,,SP36,SAN GIORGIO PIACENTINO,,IT,,PIACENZA,LIMS
11301749812,44.82007,10.29797,,VIA DELL'AEROPORTO,PARMA,EMILIA ROMAGNA,IT,,PARMA,PMF
11301749813,45.53151,8.65446,,,,,IT,,CAMERI,LIMN
11301749814,45.46178,9.2745,,V LE ENRICO FORLANNI,SEGRATE,LOMBARDIA,IT,,LINATE,LIN
11301749815,44.0446,8.13312,,SP69II,VILLANOVA D'ALBENGA,,IT,,ALBENGA,ALL
11301749816,44.41678,8.85425,,VIA PIONIERIE E AVIATORI,GENOVA,LIGURIA,IT,,CRISTOFORO COLOMBO,GOA
11301749817,45.18925,7.63974,,SP13,CASELLE TORINESE,PIEMONTE,IT,,TORINO CASELLE,TRN
11301749818,45.66509,9.69974,,VIA AEROPORTO,ORIO AL SERIO,LOMBARDIA,IT,,BERGAMO ORIO AL SERIO,BGY
11301749819,45.62512,8.70643,,SS336,VIZZOLA TICINO,LOMBARDIA,IT,,MALPENSA,MXP
11301749820,45.53982,9.1979,,V LE ACHILLE GRANDI,BRESSO,LOMBARDIA,IT,,AERO CLUB MILANO,LIMB
11301749821,45.08632,7.61135,,STRADA VICINALE DELLA BERLIA,TORINO,,IT,,AERITALIA,LIMA
11301749822,45.74205,8.8804,,SS233,CASTIGLIONE OLONA,,IT,,VENEGONO,QVA
11301749823,44.95195,9.01101,,SS461,RIVANAZZANO,,IT,,VOGHERA,LILH
11301749824,45.719,8.69315,,VIA DANTE ALIGIERI,VERGIATE,,IT,,VERGIATE,LILG
11301749825,45.4939,8.1035,,VIA VERGNASCO,VERRONE,,IT,,BIELLA CERRIONE,LILE
11301749826,39.92399,9.67888,,,TORTOLI,,IT,,TORTOLI,LIET
11301749827,39.25447,9.06427,,SS391,ELMAS,SARDEGNA,IT,,CAGLIARI,CAG
11301749828,40.90919,9.51411,,SS125,OLBIA,SARDEGNA,IT,,OLBIA COSTA SMERALDA,OLB
11301749829,39.34605,8.94752,,SS196,VILLASOR,SARDEGNA,IT,,DECIMOMANNU,LIED
11301749830,40.63253,8.29704,,SP-44,ALGHERO,SARDEGNA,IT,,ALGHERO FERTILIA,AHO
11301749831,46.00938,11.12494,,STRADA PROVINCIALE MATTARELLO ALDENO,TRENTO,,IT,,MATTARELLO,LIDT
11301749832,44.3604,12.21424,,SP118,RAVENNA,,IT,,RAVENNA,LIDR
11301749833,44.70261,10.66201,,SS468,NELL'EMILIA,,IT,,REGGIO NELL'EMILIA,LIDE
11301749834,45.87673,11.51031,,,,,IT,,ASIAGO,LIDA
11301749835,37.41129,14.90869,,SP69II,BELPASSO,CATANAI,IT,,SIGONELLA,NSY
11301749836,37.89888,12.50339,,SP21,TRAPANI,,IT,,TRAPANI BIRGI,TPS
11301749837,38.07519,15.65235,,STRADA STATALE 106 JONICA 10,REGGIO DI CALABRIA,CALABRIA,IT,,REGGIO DI CALABRIA,REG
11301749838,38.1134,13.3079,,VIA PANDOLFINI,PALERMO,BOCCADIFALCO,IT,,BOCCADIFALCO,LICP
11301749839,38.18757,13.10495,,VIA CRISTOFORO COLOMBO,CINISA,,IT,,PUNTA RAISI,PMO
11301749840,36.81919,11.96533,,,,,IT,,PANTELLERIA ISLAND,LICG
11301749841,35.50049,12.61436,,VIA BONFIGLIO,LAMPEDUSA E LINOSA,,IT,,LAMPEDUSA,LMP
11301749842,37.47412,15.07216,,STRADA STATALE ORIENTALE SICULA,CATANIA,,IT,,CATANIA FONTANAROSSA,CTA
11301749843,38.91159,16.25504,,SS18,LAMEZIA TERME,,IT,,LAMEZIA TERME,SUF
11301749844,40.77181,16.94338,,SS100,GIOIA DEL COLLE,,IT,,GIOIA DEL COLLE,LIBV
11301749845,40.65786,17.93693,,CONTRADA BARONCINO,BRINDISI,PUGLIA,IT,,BRINDISI,BDS
11301749846,40.23935,18.14477,,,,,IT,,LECCE,LCC
11301749847,42.42986,14.18896,,EX SS5,PESCARA,,IT,,PESCARA D'ABRUZZO,PSR
11301749848,40.517159,17.396511,,,,,IT,,GROTTAGLIE,TAR
11301749849,41.43405,15.5456,,VIA ASCOLI,FOGGIA,PUGLIA,IT,,GINO LISA,FOG
11301749850,41.13736,16.77844,,V LE GABRIELE D'ANNUNZIO,BARI,PUGLIA,IT,,BARI PALESE,BRI
11301749851,38.99266,17.07666,,E90,,,IT,,CROTONE,CRV
11301749852,42.37145,13.31213,,SR80DIR,L'AQUILA,ABRUZZI,IT,,PRETURO,QAQ
11301749853,41.550833,15.697873,,,,,IT,,AMENDOLA,LIBA
11301749854,48.995041,1.933361,,D154 D,LES MUREAUX,ÎLE-DE-FRANCE,FR,,S MUREAUX,LFXU
11301749855,48.545521,7.621644,,D221,HANGENBIETEN,ALSACE,FR,,STRASBOURG,SXB
11301749856,48.68931,6.21542,,D220,TOMBLAINE,LORRAINE,FR,,NANCY-ESSEY,ENC
11301749857,48.4397,-4.41596,,E50,GUIPAVAS,BRETAGNE,FR,,BREST BRETAGNE,BES
11301749858,48.806181,2.074783,,,SAINT-CYR-L'ÉCOLE,ÎLE-DE-FRANCE,FR,,SAINT-CYR-L'ECOLE,LFPZ
11301749859,48.838421,1.984331,,,CHAVENAY,ÎLE-DE-FRANCE,FR,,CHAVENAY-VILLEPREUX,LFPX
11301749860,48.70083,2.905204,,D402,FONTENAY-TRÉSIGNY,ÎLE-DE-FRANCE,FR,,FONTENAY-TRÉSIGNY,LFPQ
11301749861,48.824852,2.631261,,D51 E,CROISSY-BEAUBOURG,ÎLE-DE-FRANCE,FR,,LOGNES-EMERAINVILLE,LFPL
11301749862,48.92247,2.84008,,D5,ISLES-LÈS-VILLENOY,ÎLE-DE-FRANCE,FR,,MEAUX-ESBLY,LFPE
11301749863,43.656552,5.020627,,,SALON-DE-PROVENCE,PROVENCE-ALPES,FR,,SALON-EYGUIÈRES,LFNE
11301749864,48.557073,7.782679,,RUE DE LA MUSAU,STRASBOURG,ALSACE,FR,,STRASBOURG-NEUHOF,LFGC
11301749865,48.767827,3.282409,,D215,LA FERTÉ-GAUCHER,ÎLE-DE-FRANCE,FR,,LA FERTÉ-GAUCHER,LFFG
11301749867,50.512149,1.615688,,AVE NUE DE CANADIENS,LE TOUQUET-PARIS-PLAGE,NORD-PAS-DE-CAL,FR,,LE TOUQUET-CÔTE D'OPALE,LTQ
11301749868,37.42469,-5.90422,,E-5,SEVILLA,ANDALUCÍA,ES,,SEVILLA,SVQ
11301749869,41.662414,-1.004706,,N-125,ZARAGOZA,ARAGÓN,ES,,ZARAGOZA AB,ZAZ
11301749870,42.22598,-8.6339,,N-556,VIGO,GALICIA,ES,,VIGO,VGO
11301749871,43.4262,-3.83549,,S-10,CAMARGO,CANTABRIA,ES,,SANTANDER,SDR
11301749872,42.88506,-2.7334,,N-624,VITORIA,PAÍS VASCO,ES,,VITORIA-GASTEIZ'KO,VIT
11301749873,40.365164,-3.775696,,CARRETERA DEL BARRIO DE LA FORTUNA,MADRID,,ES,,CUATRO VIENTOS,LEVS
11301749874,41.70681,-4.84209,,N-601,VILLANUBLA,CASTILLA Y LEÓ,ES,,VALLADOLID,VLL
11301749875,40.467714,-3.454165,,,TORREJON DE ARDOZ,,ES,,TORREJON AFB,TOJ
11301749876,39.493413,-0.47247,,SANTOS JUSTO PASTOR,MANISES,COMUNIDAD VALE,ES,,VALENCIA,VLC
11301749877,40.24,-4.794,,,,,ES,,EL TIETAR,LETI
11301749878,37.35779,-6.00353,,SE-30,SEVILLA,ANDALUCÍA,ES,,TABLADA,LETA
11301749879,42.34085,-1.40609,,NA-534,CARCASTILLO,NAVARRA,ES,,SEO DE URGEL,LEU
11301749880,42.9016,-8.42385,,,SANTIAGO DE COMPOSTELA,GALICIA,ES,,SANTIAGO,SCQ
11301749881,43.35668,-1.79465,,N-638,HONDARRIBIA,PAÍS VASCO,ES,,SAN SEBASTIÁN,EAS
11301749882,39.6,2.69637,,,,,ES,,SON BONET,LESB
11301749883,39.865263,4.258559,,,,,ES,,SAN LUIS,LESL
11301749884,40.9372,-5.4958,,,MACHACÓN,CASTILLA Y LEÓ,ES,,SALAMANCA,SLM
11301749885,36.6282,-6.335337,,,,,ES,,ROTA NS,RTA
11301749886,41.144018,1.145649,,C-14,REUS,CATALUNYA,ES,,REUS,REU
11301749887,43.109593,-7.456399,,,,,ES,,ROZAS,LERO
11301749888,40.8653,-3.248,,,,,ES,,ROBLEDILLO DE MOHERNANDO,LERM
11301749889,37.9598,-1.2278,,,,,ES,,ALCANTARILLA,LERI
11301749890,42.450203,-2.317253,,,AGONCILLO,LA RIOJA,ES,,LOGROÑO-AGONCILLO,LERJ
11301749891,38.907862,-4.1827,,,,,ES,,POZUELOS DE CALATRAVA,LEPZ
11301749892,42.76977,-1.63468,,N-121,NOÃ¡IN (VALLE DE ELORZ),COMUNIDAD FORA,ES,,PAMPLONA,PNA
11301749893,39.54426,2.72586,,AUTOPISTA AEROPORT,PALMA DE MALLORCA,ILLES BALEARS,ES,,PALMA DE MALLORCA,PMI
11301749894,39.93421,-3.48828,,,,,ES,,OCANA,LEOC
11301749895,43.426178,-5.831593,,,,,ES,,LA MORGAL,LEMR
11301749896,39.866678,4.226,,,MAÓ,ILLES BALEARS,ES,,MENORCA,MAH
11301749897,37.167035,-5.604427,,,,,ES,,MORON AB,OZP
11301749898,36.672871,-4.484492,,AVENIDA COMANDANTE GARCIA MORATO,MÁLAGA,ANDALUCÍA,ES,,MÁLAGA,AGP
11301749899,40.468201,-3.569,,AVENIDA DE LA HISPANIDAD,MADRID,COMUNIDAD DE M,ES,,BARAJAS,MAD
11301749900,42.58,-5.641,,,VALVERDE DE LA VIRGEN,CASTILLA Y LEÓ,ES,,LEÓN,LELN
11301749901,37.7893,-0.815264,,,LOS ALCÁZARES,REGIÓN DE MURC,ES,,MURCIA SAN JAVIER,MJV
11301749902,38.744612,-3.517508,,,,,ES,,LA CALDERERA,LELA
11301749903,36.75531,-6.07479,,N-346,JEREZ DE LA FRONTERA,ANDALUCÍA,ES,,JEREZ DE LA FRONTERA,XRY
11301749904,38.513139,-3.364325,,,,,ES,,LA PERDIZ,LEIZ
11301749905,38.883581,1.388411,,,SANT JOSEP DE SA TALAIA,ILLES BALEARS,ES,,IBIZA-SAN JOSÉ,IBZ
11301749906,40.301627,-3.727391,,,,,ES,,GETAFE,LEGT
11301749907,37.19143,-3.75041,,A-92,SANTA FÉ,ANDALUCÍA,ES,,GRANADA,GRX
11301749908,41.89949,2.768916,,CARRETERA DE L'AEROPORT,VILOBÍ D'ONYAR,CATALUNYA,ES,,GIRONA,GRO
11301749909,37.137103,-3.628875,,N-323A,ALHENDÍN,ANDALUCÍA,ES,,ARMILLA,LEGA
11301749910,40.897185,-4.255495,,CAMINO DE LA DEHESA,SEGOVIA,LEON,ES,,FUENTEMILANOS,LEFM
11301749911,43.30802,-8.375343,,AVENIDA DE ALVEDRO,CULLEREDO,,ES,,A CORUNA,LCG
11301749912,38.881653,-6.821333,,,BADAJOZ,EXTREMADURA,ES,,TALAVERA LA REAL,BJZ
11301749913,41.30519,2.07446,,CARRETERA DE L'AEROPORT,BARCELONA,CATALUNYA,ES,,EL PRAT DE LLOBREGAT,BCN
11301749914,42.363,-3.62796,,N-120,BURGOS,CASTANARES,ES,,BURGOS,LEBG
11301749915,38.26962,-2.94462,,A-314,BEAS DE SEGURA,ANDALUCÍA,ES,,BEAS DE SEGURA,LEBE
11301749916,43.30729,-2.89822,,N-633,LOIU,PAÍS VASCO,ES,,BILBAO,BIO
11301749917,37.850416,-4.839799,,N-437,CÓRDOBA,ANDALUCÍA,ES,,CÓRDOBA,ODB
11301749918,43.55685,-6.02914,,N-643,CASTRILLÓN,PRINCIPADO DE,ES,,ASTURIAS,OVD
11301749919,36.85003,-2.37202,,CARRETERA AL AEROPUERTO,ALMERÍA,ANDALUCÍA,ES,,ALMERIA,LEI
11301749920,38.29046,-0.556548,,CARRETERA AL AEROPUERTO,ELX,COMUNIDAD VALE,ES,,ALICANTE,ALC
11301749921,38.953897,-1.880381,,,ALBACETE,CASTILLA-LA MA,ES,,ALBACETE,LEAB
11301749922,35.30219,-2.95166,,,,MOROCCO,ES,,MELILLA,MLN
11301749923,36.93067,-3.83507,,SO-16,ARENAS DEL REY,ANDALUCÍA,ES,,JAYENA,LE84
11301749924,28.489146,-16.348614,,TF-5,LA LAGUNA,ISLAS CANARIAS,ES,,TENERIFE NORTE,TFN
11301749925,28.058698,-16.580739,,,GRANADILLA DE ABONA,ISLAS CANARIAS,ES,,TENERIFE SUR,TFS
11301749926,28.955698,-13.60776,,,SAN BARTOLOMÉ,ISLAS CANARIAS,ES,,LANZAROTE,ACE
11301749927,27.942302,-15.389931,,,TELDE,ISLAS CANARIAS,ES,,GRAN CANARIA,LPA
11301749928,28.62341,-17.753399,,,VILLA DE MAZO,ISLAS CANARIAS,ES,,LA PALMA,SPC
11301749929,27.810392,-17.885959,,,VALVERDE,ISLAS CANARIAS,ES,,EL HIERRO,GCHI
11301749930,28.02914,-17.206049,,,ALAJERÓ,ISLAS CANARIAS,ES,,LA GOMERA,GMZ
11301749931,28.455038,-13.87075,,,PUERTO DEL ROSARIO,ISLAS CANARIAS,ES,,FUERTEVENTURA,FUE
11301749932,65.81474,15.08762,,E12,HEMAVAN,,SE,,HEMAVAN,HMV
11301749933,67.25035,23.07031,,395,PAJALA,,SE,,PAJALA,PJA
11301749934,61.85703,12.71185,,70,IDRE,,SE,,IDRE,IDB
11301749935,64.96927,17.71575,,E12,GUNNARN,,SE,,STORUMANS,SQO
11301749936,56.29039,12.87532,,MARGRETETORPSVAGEN,ÄNGELHOLM,,SE,,ÄNGELHOLM-HELSINGBORGS,AGH
11301749937,57.66413,18.33328,,LUMMELUNDSVÄG,GUSTAVSVIK,,SE,,GUSTAVSVIK,VBY
11301749938,57.78167,16.5334,,E22,VASTERVIK,,SE,,VASTERVIK,VVK
11301749939,59.35171,16.68996,,,ESKILSTUNA,,SE,,ESKILSTUNA,EKT
11301749940,60.1505,13.00102,,45,TORSBY,,SE,,FRYKLANDA,TYF
11301749941,58.58161,16.25163,,209,NORRKÖPING,,SE,,KUNGSÄNGEN,NRK
11301749942,58.40651,15.65175,,GELBGJUTAREGATAN,LINKÖPING,,SE,,LINKÖPING FLYGPLATZ,LPI
11301749943,60.59612,16.97445,,67,GÄVLE-SANDVIKEN,,SE,,GÄVLE-SANDVIKEN,GVX
11301749944,57.52502,15.84353,,34,HULTSFRED-VIMMERBY,,SE,,HULTSFRED-VIMMERBY AB,HLF
11301749945,60.43268,15.50733,,ÖVERSTEVÄGEN,BORLÄNGE,,SE,,DALA,BLE
11301749946,59.35516,17.95215,,FLYGPLATSINFARTEN,BROMMA,,SE,,BROMMA,EBMA
11301749947,59.63701,17.93487,,ARLANDAVÄGEN,MÄRSTA,,SE,,ARLANDA,ARN
11301749948,63.20125,14.49706,,,ÖSTERSUND,,SE,,FRÖSÖN AB,OSD
11301749949,65.55215,22.08022,,KALLAXVÄGEN,LULEÅ,,SE,,KALLAX,LLA
11301749950,59.60243,16.62695,,HÄSSLÖGATAN,VÄSTERÅS,,SE,,VÄSTERÅS (HASSLO),VST
11301749951,59.2428,15.05195,,E18,ÖREBRO,,SE,,ÖREBRO,ORB
11301749952,59.4589,13.3718,,61,KARLSTAD,,SE,,KARLSTAD,KSD
11301749953,60.02707,13.58994,,62,HAGFORS,,SE,,HAGFORS,HFS
11301749954,61.27671,17.09711,,FLYGVÄGEN,SÖDERHAMN,,SE,,SÖDERHAMN,SOO
11301749955,65.58201,19.28559,,FRAMNÄS,ARVIDSJAUR,,SE,,ARVIDSJAUR,AJR
11301749956,16.83972,64.578611,,SAGADAL 4,VILHELMINA,,SE,912 90,VILHELMINA,VHM
11301749957,63.79886,20.28383,,BLÅVÄGEN,UMEÅ,,SE,,UMEÅ,UME
11301749958,67.83907,20.35061,,FLYGFÄTTSVÄGEN,KIRUNA,,SE,,KIRUNA,KRN
11301749959,64.62334,21.05828,,VIKDAL,SKELLEFTEÅ,,SE,,SKELLEFTEÅ,SFT
11301749960,63.41244,18.99265,,,ÖRNSKÖLDSVIK,,SE,,ÖRNSKÖLDSVIK,OER
11301749961,62.5182,17.43597,,E4,SUNDSVALL-HÄRNÖSAND,,SE,,MIDLANDA,SDL
11301749962,64.55348,18.69919,,HELSINGFORS,LYCKSELE,,SE,,LYCKSELE,LYC
11301749963,63.02295,17.76428,,333,KRAMFORS-SOLLEFTEÅ,,SE,,KRAMFORS-SOLLEFTEÅ,KRF
11301749964,61.76593,17.0957,,E4,HUDIKSVALL,,SE,,HUDIKSVALL,HUV
11301749965,62.03787,14.40784,,45,SVEG,,SE,,SVEG,EVG
11301749966,67.14689,20.78941,,45,GÄLLIVARE,,SE,,GÄLLIVARE,GEV
11301749967,56.68248,12.8329,,MICKEDALAVÄGEN,HALMSTAD,,SE,,HALMSTAD AB,HAD
11301749968,55.53319,13.351,,SÖDRA STURUPSVÄGEN,SVEDALA,,SE,,Sturup,MMX
11301749969,56.67806,16.30356,,FÖLEHAGSVÄGEN,KALMAR,,SE,,KALMAR,KLR
11301749970,57.3509,16.4914,,E22,OSKARSHAMN,,SE,,OSKARSHAMN,OSK
11301749971,55.9236,14.07401,,19,EVERÖD,,SE,,EVERÖD,KID
11301749972,60.96769,14.48796,,45,MORA,,SE,,SILJAN,MXX
11301749973,58.77039,16.94903,,52,NYKOPING,,SE,,SKAVSTA AB,HYO
11301749974,59.3402,14.49952,,HANGARSVÄGEN,KARLSKOGA,,SE,,KARLSKOGA,KSK
11301749975,58.30528,12.32389,,FLYGFÄLTSVÄGEN,TROLLHÄTTAN-VÄNERSBORG,,SE,,FYRSTADS,THN
11301749976,58.4524,13.9541,,FLYGFÄTSVÄGEN,SKÖVDE,,SE,,SKÖVDE,KVB
11301749977,57.77784,11.8589,,KONGÄHALLAVÄGEN,SÄVE,,SE,,SÄVE AB,GSE
11301749978,58.45572,13.15688,,HOVBY,LIDKÖPING,,SE,,LIDKÖPING AB,LDK
11301749979,57.76183,17.09878,,DOMAREVÄGEN,JÖNKÖPING,,SE,,JÖNKÖPING,JKG
11301749980,57.68,12.3102,,40,HÄRRYDA,,SE,,GÖTEBORG-LANDWETTER,GOT
11301749981,56.25368,15.26703,,BREDÅKRAVÄGEN,RONNEBY,,SE,,RONNEBY AB,RNM
11301749982,49.63358,6.21132,,ROUTE DE TRÉVES,LUXEMBOURG,,LU,,FINDEL,LUX
11301749983,57.0335,-7.4352,,,,,GB,,BARRA AERODROME,BRR
11301749984,55.86374,-4.43572,,CALEDONIA WAY,PAISLEY,,GB,,GLASGOW,GLA
11301749985,49.20625,-2.18996,,B36,,,GB,,JERSEY,JER
11301749986,54.08503,-4.63729,,A5,,,GB,,ISLE OF MAN,IOM
11301749987,50.12839,-5.52069,,POSSES LANE,GULVAL,,GB,,PENZANCE HELIPORT,PZE
11301749988,50.10124,-5.66655,,B3306,ST JUST,,GB,,LANDS END,LEQ
11301749989,60.1878,-1.2464,,A971,SHETLAND,,GB,,LERWICK TINGWALL,LWK
11301749990,59.53476,-1.62859,,FAIR ISLE-LERWICK,SHETLAND ISLANDS,SCOTLAND,GB,,FAIR ISLE,FIE
11301749991,64.05116,24.70652,,LENTOKENTÄNTIE,YLIVIESKA,OULU,FI,,YLIVIESKA,YLI
11301749992,62.17281,27.84022,,LENTOKENTÄNTIE,VARKAUS,,FI,,VERKAUDEN,VRK
11301749993,63.04385,21.75218,,FLYGFÄLTSVAGEN,VAASA,,FI,,VASSAN,VAA
11301749994,60.5101,22.28147,,LENTOASEMANTIE,TURKU,,FI,,TURKUN,TKU
11301749995,61.42223,23.61509,,,PIRKKALA,,FI,,TAMPERE-PIRKKALAN,TMP
11301749996,67.41336,26.61023,,POLVARINTIE,SODANKYLÄ,,FI,,SODANKYLÄ,SOT
11301749997,62.697,22.8175,,LENTOKENTÄNTIE,SEINÄJOEN,,FI,,SEINÄJOEN,SJY
11301749998,61.946,28.9212,,LENTOASEMANTIE,SAVONLINNA,,FI,,SAVONLINNAN,SVL
11301749999,66.558,25.829,,LENTOKENTÄNTIE,ROVANIEMI,,FI,,ROVANIEMEN,RVN
11301750000,61.46929,21.7932,,LENTOASEMANTIE,PORI,,FI,,BJORNEBORG FLYGPLATS,POR
11301750001,61.68767,27.20667,,LENTOKENTÄNKATU,MIKKELI,,FI,,MIKKELIN,MIK
11301750002,64.93006,25.374,,LENTOKENTÄNTIE,OULU,,FI,,OULUN,OUL
11301750003,60.12458,19.90921,,FLYGFÄLTSVÄGEN,ALAND ISLAND,,FI,,MARIEHAMNS FLYGPLATS,MHQ
11301750004,61.04366,28.15796,,LENTOKENTÄNTIE,LAPPEENRANTA,,FI,,VILLMANSTRANDS FLYGPLATZ,LPP
11301750005,67.69633,24.86335,,LEVINTIE,KITTILÄ,,FI,,KITTILÄN,KTT
11301750006,63.00715,27.78576,,LENTOKENTÄNTIE,KUOPIO,,FI,,KUOPIO FLYPLATZ,KUO
11301750007,65.99715,29.2269,,LENTOKENTÄNTIE,KUUSAMO,,FI,,KUUSAMON,KAO
11301750008,63.719,23.13313,,LENTÄJÄNTIE,KOKKOLA/PIETARSAARI,,FI,,KRUUNUPYYN,KOK
11301750009,62.46559,22.38884,,TOKEROTIE,KAUHAJOKI,,FI,,KAUHAJOKI,KHJ
11301750010,64.28095,27.6624,,PALTANIENENTIE,KAJAANI,,FI,,KAJAANIN,KAJ
11301750011,65.77423,24.56214,,E75,KEMI,,FI,,KEMI/TORNIO AIRPORT,KEM
11301750012,63.1141,23.04682,,LENTOKENTÄNTIE,KAUHAVA,,FI,,KAUHAVA,KAU
11301750013,62.40785,25.69755,,LENTOASEMANTIE,JYVÄSKYLÄ,,FI,,JYVÄSKYLÄN,JYV
11301750014,62.65669,29.61324,,LENTOVAYIA,JOENSUU,,FI,,JOENSUU FLYGPLATZ,JOE
11301750015,68.60105,27.47849,,4,TÖRMÄNEN,,FI,,IVALO FLYGPLATS,IVL
11301750016,62.16706,30.06662,,6,KITEE,,FI,,KITEE,KTQ
11301750017,60.64849,24.88836,,LENTOKENTÄNTIE,HYVINKÄÄ,,FI,,HYVINKÄÄ,HYV
11301750018,60.30699,24.96571,,TEKNIKONTIE,VANTAA,,FI,,HELSINKI-VANTAA AIRPORT,HEL
11301750019,60.2456,25.0452,,TATTARIHARJUNTIE,MALMI,,FI,,HELSINKI-MALMI,HEM
11301750020,68.35532,23.43926,,93,HETTA,,FI,,ENONTEKIO,ENF
11301750021,61.86468,24.81511,,KUOREVEDENTIE,JAMSA,,FI,,KUOREVISI,KEV
11301750022,45.99989,8.906851,,VIA LE F COPPI,MUZZANO,ITA,CH,,AEROPORTO DI LUGANO-AGNO,LUG
11301750023,47.40951,7.05205,,ROUTE DE'COURTEDOUX,PORRENTRUY,FRE,CH,,PORRENTRUY-COURTEDOUX,LSZY
11301750024,47.171331,9.050543,,GASTERSTRASSE,SCHÄNIS,UND,CH,,SCHÄNIS,LSZX
11301750025,47.27025,8.308591,,FLUGPLATZSTRASSE,BUTTWIL,GER,CH,,BUTTWIL,LSZU
11301750026,47.527301,8.993888,,FLUGPLATZSTRASSE,LOMMIS,UND,CH,,LOMMIS,LSZT
11301750027,47.48885,9.551223,,DORFSTRASSE,THAL,GER,CH,,ST. GALLEN-ALTENRHEIN,LSZR
11301750028,47.089474,7.287888,,HAUPTSTRASSE,KAPPELEN,GER,CH,,BIEL-KAPPELEN,LSZP
11301750029,47.19158,8.205889,,LUZERNERSTRASSE,BEROMÜNSTER,GER,CH,,LUZERN-BEROMÜNSTER,LSZO
11301750030,47.375021,8.765079,,SPECKSTRASSE,PFFÄFIKON,UND,CH,,SPECK,LSZK
11301750031,47.1838,7.08963,,30,COURTELARY,FRE,CH,,JURA-SUD COURTELARY,LSZJ
11301750032,47.44435,8.227555,,BIRRFELDSTRASSE,BIRR,UND,CH,,BIRRFELD,LSZF
11301750033,47.014979,9.488788,,MALANGGASTRASSE,BAD RAGAZ,GER,CH,,BAD RAGAZ,LSZE
11301750034,46.91391,7.50104,,FLUGPLATZSTRASSE,BELP,GER,CH,,BERN-BELP,LSZB
11301750035,46.91257,6.61603,,RUE DU CHÂTEAU,MÔTIERS,FRE,CH,,VAL-DE-TRAVERS,LSTO
11301750036,46.97674,7.118791,,ROUTE DE'LA RÉCORBE,BAS-VULLY,FRE,CH,,BELLECHASSE,LSTB
11301750037,47.23345,8.07725,,KANTONSSTRASSE,TRIENGEN,GER,CH,,TRIENGEN,LSPN
11301750038,47.17882,7.74522,,LANGENTHALSTRASSE,BLEIENBACH,UND,CH,,LANGENTHAL-BLEIENBACH,LSPL
11301750039,46.978943,8.396381,,STANSERSTRASSE,BUOCHS,UND,CH,,BUOCHS,LSMU
11301750040,46.59473,7.092232,,ROUTE DE L'AÉRODROME,GRUYÈRES,UND,CH,,LA GRUYÈRE,LSGT
11301750041,46.409099,6.260501,,ROUTE DE L'AÉRODROME,PRANGINS,FRE,CH,,LA CÔTE,LSGP
11301750042,46.960921,6.864539,,AREUSE,BOUDRY,UND,CH,,NEUCHÂTEL,LSGN
11301750043,46.541729,6.619914,,ROUTE DE'ROMANEL,LAUSANNE,FRE,CH,,LAUSANNE-BLÉCHERETTE,LSGL
11301750044,46.759671,7.093232,,ROUTE DE POSIEUX,ECUVILLENS,UND,CH,,DE FRIBOURG-ECUVILLENS,LSGE
11301750045,47.08464,6.79758,,BOULEVARD DES EPLATURES,LE CHAUX -DE-FONDS,UND,CH,,LES EPLATURES,LSGC
11301750046,48.32462,16.12313,,BAHNSTRASSE,TULLN AN DER DONAU,,AT,,SEGELLANGENLEBAM,LOXT
11301750047,46.65084,14.32549,,FLUGHAFENSTRASSE,KLAGENFURT,,AT,,KLAGENFURT-WÖRTHERSEE,KLU
11301750048,48.12545,16.55851,,E58,SCHWECHAT,,AT,,WIEN-SCHWECHAT AIRPORT,VIE
11301750049,47.79143,12.99311,,LOIGERSTRASSE,SALZBURG,,AT,,SALZBURG,SZG
11301750050,48.24059,14.19207,,FLUGHAFENSTRASSE,HÖRSCHING,,AT,,LINZ-HÖRSCHING,LNZ
11301750051,47.25716,11.35328,,FÜRSTENWEG,INNSBRUCK,,AT,,INNSBRUCK AIRPORT,INN
11301750052,46.99657,15.4467,,FLUGHAFENSTRASSE,ABTISSENDORF,,AT,,GRAZ-THALERHOF,GRZ
11301750053,48.17393,14.04162,,FLUGPLATZSTRASSE,WELS,,AT,,WELS,LOLW
11301750054,47.9635,16.25004,,FLUGFELDSTRASSE,KOTTINGBRUNN,,AT,,VÖSLAU,LOAV
11301750055,47.84203,16.25655,,FERDINAND GRAF VON ZEPPELIN-STRASSE,WIENER NEUSTADT,,AT,,WIENER NEUSTADT,LOAN
11301750056,48.09618,5.65485,,D215,DAMBLAIN,LORRAINE,FR,,DAMBLAIN,LFYD
11301750057,45.97513,5.33008,,D77 E,CHATEUA-GAILLARD,RHÔNE-ALPES,FR,,AMBERIEU,LFXA
11301750058,43.20637,6.48187,,N98,ST-TROPEX-LA MÔLE,PROVENCE-ALPES,FR,,SAINT-TROPEZ - LA MÔLE,LTT
11301750059,43.76214,4.42447,,A54,GARONS,LANGUEDOC-ROUS,FR,,NÎMES-ARLES-CAMARGUE,FNI
11301750060,43.09024,6.16014,,1170 D42,HYERES,PROVENCE-ALPES,FR,,TOULON-HYÈRES,TLN
11301750061,43.237411,6.143663,,D121,PIERREFEU-DU-VAR,PROVENCE-ALPES,FR,,CUERS-PIERREFEU,LFTF
11301750062,47.769387,6.36538,,D32,LA CHAPELLE-LES-LUXEUIL,FRANCHE-COMTÉ,FR,,SAINT SAUVEUR,LFSX
11301750063,49.30365,4.06637,,ROUTE DE BETHENY,BÉTHENY,CHAMPAGNE-ARDE,FR,,REIMS-CHAMPAGNE,RHE
11301750064,46.91152,6.32819,,D72,HOUTAUD,FRANCHE-COMTÉ,FR,,PONTARLIER,LFSP
11301750065,48.571908,5.960681,,D974,NANCY,LORRAINE,FR,,OCHEY,LFSO
11301750066,47.22088,4.5686,,C7,MACONGE,CÔTE D'OR,FR,,POUILLY-MACONGE,LFEP
11301750067,47.49315,6.79352,,D472,MONTBELIARD,FRANCHE-COMTÉ,FR,,MONTBÉLIARD-COURCELLES,XMF
11301750068,48.6191,4.89857,,D384,SAINT-DIZIER,CHAMPAGNE-ARDEN,FR,,ROBINSON,LFSI
11301750069,48.79664,7.81293,,12 RUE SAINT-EXUPERY,HAGUENAU,ALSACE,FR,,HAGUENAU,LFSH
11301750070,48.31204,6.07833,,D17 D,JUVAINCOURT,LORRAINE,FR,,EPINAL-MIRECOURT,EPL
11301750071,49.07216,6.13931,,RUE DE L'AEROGARE,MARLY,LORRAINE,FR,,METZ-FRESCATY,MZM
11301750072,47.27918,5.06833,,D996 A,LONGVIC,BOURGOGNE,FR,,DIJON-BOURGOGNE,DIJ
11301750073,47.922,7.5,,,COLMAR,,FR,,MEYENHEIM,LFSC
11301750074,47.60147,7.53565,,E25,SAINT-LOUIS,ALSACE,FR,,BASEL-MULHOUSE-FREIBOURG,MLH
11301750075,47.31772,-2.16271,,D971,MONTOIR-DE-BRETAGNE,PAYS DE LA LOI,FR,,SAINT-NAZAIRE - MONTOIR,SNR
11301750076,47.71985,-2.72829,,D778 E,MONTERBLANC,BRITTANY,FR,,VANNES,VNE
11301750077,48.59655,-3.81304,,D786,MORLAIX,BRETAGNE,FR,,MORLAIX-PLOUJEAN,MXN
11301750078,48.53024,-2.8578,,N12,TRÉMUSON,BRETAGNE,FR,,SAINT-BRIEUC-ARMOR,SBK
11301750079,47.15894,-1.59881,,D85,BOUGUENAIS,PAYS DE LA LOI,FR,,NANTES-ATLANTIQUE,NTE
11301750080,47.96845,-4.18162,,GRATOIRE DE L'AERODROME,PLUGUFFAN,BRETAGNE,FR,,QUIMPER-CORNOUAILLE,UIP
11301750081,48.75863,-3.47028,,D11,LANNION,BRETAGNE,FR,,LANNION-CÔTE DE GRANIT,LAI
11301750082,48.06714,-1.72196,,RUE JULES VALLES,SAINT-JACQUES-DE-LA-LANDE,BRETAGNE,FR,,RENNES-SAINT-JACQUES,RNS
11301750083,47.94489,0.19572,,ROUTE D'ANGERS,ARNAGE,PAYS DE LA LOI,FR,,MANS,LME
11301750084,48.277497,-4.4502,,D63,LANVEOC,BRETAGNE,FR,,POULMIC,LFRL
11301750085,49.18414,-0.45832,,ROUTE DE CAUMONT,CARPIQUET,BASSE-NORMANDI,FR,,CAEN-CARPIQUET,CFR
11301750086,48.5152,-4.1448,,D32,BODILIS,BRETAGNE,FR,,LANDIVISIAU,LDV
11301750087,46.69221,-1.36739,,N160,LA ROCHE-SUR-YON,PAYS DE LA LOIR,FR,,LES AJONCS,EDM
11301750088,47.75125,-3.43422,,RUE DE L'AEROGARE,PLOEMEUR,BRETAGNE,FR,,LORIENT LANN-BIHOUÉ,LRT
11301750089,49.36044,0.15761,,D74,SAINT-GATIEN-DES-BOIS,BASSE-NORMANDI,FR,,DEAUVILLE SAINT-GATIEN,DOL
11301750090,48.87168,-1.5538,,GRANVILLE,D135,BREVILLE-SUR-MA,FR,,GRANVILLE,LFRF
11301750091,47.28847,-2.35847,,18 RUE DE MOULINES DE ROCHEFORT,LA BAULE-ESCOUBLAC,PAYS DE LA LOI,FR,,LA BAULE-ESCOUBLAC,LFRE
11301750092,48.59574,-2.07269,,D64,PLEURTUIT,BRETAGNE,FR,,DINARD-PLEURTUIT-SAINT MALO,DNR
11301750093,49.64391,-1.47897,,D901,GONNEVILLE,BASSE-NORMANDI,FR,,CHERBOURG MAUPERTUS,CER
11301750094,47.63887,6.20047,,N19,FROTEY-LES-VESOUL,FRANCHE-COMTÉ,FR,,VESOUL-FROTEY,XVO
11301750095,49.78316,4.6393,,D116,BELVAL,CHAMPAGNE-ARDE,FR,,CHARLEVILLE MEZIERES,XCZ
11301750096,50.62801,2.64288,,RUE DU DOCTEUR ROUSSEAU,MERVILLE,NORD-PAS-DE-CA,FR,,MERVILLE-CALONNE,LFQT
11301750097,50.57664,3.1126,,BLVD DU PETIT QUINQUIN,,NORD-PAS-DE-CAL,FR,,LILLE-LESQUIN,LIL
11301750098,48.755076,7.197345,,N4,SAINT-JEAN-KOURTZERODE,LORRAINE,FR,,BOURSCHEID,LFQP
11301750099,47.20432,6.07229,,D246,LA VEZE,FRANCHE-COMTÉ,FR,,LA VEZE,LFQM
11301750100,50.31704,4.03,,D28,MAUBEUGE,NORD-PAS-DE-CAL,FR,,MAUBEUGE-ELESMES,XME
11301750101,50.211963,3.16172,,D340,HAYNECOURT,NORD-PAS-DE-CAL,FR,,EPINOY,LFQI
11301750102,46.99863,3.10811,,D40,MARZY,BOURGOGNE,FR,,NEVERS FOURCHAMBAULT,NVS
11301750103,46.97044,4.271935,,D978,AUTUN,BOURGOGNE,FR,,D'AUTUN-BELLEVUE,LFQF
11301750104,49.21744,5.682244,,D906,ROUVRES-EN-WOËVRE,LORRAINE,FR,,ROUVRES,LFQE
11301750105,48.59157,6.52744,,RUE NATIONALE,CHANTEHEUX,LORRAINE,FR,,LUNEVILLE-CROISMARE,LFQC
11301750106,48.3324,4.01955,,ROUTE DE L'AEROPORT,BARBEREY-SAINT-SULPICE,CHAMPAGNE-ARDE,FR,,TROYES-BARBEREY,QYR
11301750107,49.21066,4.1486,,D931,PRUNAY,CHAMPAGNE-ARDE,FR,,PRUNAY,LFQA
11301750108,48.60258,2.37135,,2 RUE DES BORDES,BONDOUFLE,ÎLE-DE-FRANCE,FR,,BRÉTIGNY-SUR-ORGE,LFPY
11301750109,48.77248,2.21649,,ROUTE DE GISY,BIÉVRES,ÎLE-DE-FRANCE,FR,,VÉLIZY-VILLACOUBLAY,LFPV
11301750110,48.33465,2.79076,,,ÉPISY,ÎLE-DE-FRANCE,FR,,MORET-EPISY,LFPU
11301750111,49.10175,2.04197,,D915,BOISSY-L'AILLERIE,ÎLE-DE-FRANCE,FR,,PONTOISE-CORMEILLES,POX
11301750112,48.73809,2.36423,,A106,PARAY-VIELLE-POSTE,ÎLE-DE-FRANCE,FR,,ORLY INTL,ORY
11301750113,48.75079,2.12057,,D938,TOUSSUS-LE-NOBLE,ÎLE-DE-FRANCE,FR,,TOUSSUS-LE-NOBLE,TNF
11301750114,48.60539,2.65106,,D57,MONTEREAU-SUR-LE-JARD,ÎLE-DE-FRANCE,FR,,MELUN-VILLAROCHE,LFPM
11301750115,48.82883,3.02737,,1174 AVENUE DU GENERAL DE GAULLE,MOUROUX,ÎLE-DE-FRANCE,FR,,COULOMMIERS - VOISINS - MOUROUX,LFPK
11301750116,48.892731,2.606039,,RUE ROBER MARCOMBE,CHELLES,ÎLE-DE-FRANCE,FR,,CHELLES,LFPH
11301750117,49.00542,2.53389,,A106,ROISSY-EN-FRANCE,ÎLE-DE-FRANCE,FR,,PARIS CHARLES DE GAULLE,CDG
11301750118,49.244031,2.506768,,N330,CREIL,PICARDY,FR,,CREIL,CSF
11301750119,48.94786,2.43747,,N17,LE BLANC-MESNI,ÎLE-DE-FRANCE,FR,,PARIS-LE BOURGET,LBG
11301750120,49.15968,2.308461,,D924,BERNES-SUR-OISE,ÎLE-DE-FRANCE,FR,,PERSAN-BEAUMONT,LFPA
11301750121,47.89881,2.16095,,D411,SAINT-DENIS-DE-L'HOTEL,CENTRE,FR,,ST DENIS DE L HOTEL,LFOZ
11301750122,48.03505,-0.73923,,ROUTE D'ANGERS,ENTRAMMES,PAYS DE LA LOI,FR,,LAVAL-ENTRAMMES,LVA
11301750123,47.08239,-0.8779,,RUE CHARLES LINDBERGH,CHOLET,PAYS DE LA LOIR,FR,,LE PONTREAU,CET
11301750124,47.42505,0.71217,,RUE DE L'AEROGARE,TOURS,CENTRE,FR,,TOURS-VAL-DE-LOIRE,TUF
11301750125,47.68154,1.21262,,D957,LA CHAPELLE-VENDÔMOISE,CENTRE,FR,,BLOIS-LE BREUIL,XBQ
11301750126,49.39159,1.19419,,RUE DE ROUEN,BOOS,HAUTE-NORMANDI,FR,,ROUEN-VALLÉE DE SEINE,URO
11301750127,48.78045,4.22132,,N77,BUSSY-LETTREE,CHAMPAGNE-ARDE,FR,,VATRY,LFOK
11301750128,47.98118,1.78382,,D836,BOULAY-LES-BARRES,CENTRE,FR,,AERODROME D'ORLEANS-BRICY,ORE
11301750129,50.13953,1.82452,,N1,BUIGNY-SAINT-MACLOU,PICARDY,FR,,AERODROME DE LA SOMME,XAB
11301750130,49.53207,0.09589,,RUE LOUIS BLERIOT,LE HAVRE,HAUTE-NORMANDI,FR,,LE HAVRE-OCTEVILLE,LEH
11301750131,49.01431,1.22591,,N13,LE VIEIL-EVREUX,HAUTE-NORMANDI,FR,,FAUVILLE,EVX
11301750132,47.26058,-0.11643,,4 ROUTE DE MARSON,SAUMUR,PAYS DE LA LOI,FR,,SAUMUR-ST FLORENT,XSU
11301750133,48.06344,1.37997,,D955,JALLANS,CENTRE,FR,,CHÂTEAUDUN,LFOC
11301750134,49.46094,2.10314,,ROUTE DE L'AEROPORT,TILLÉ,PICARDIE,FR,,BEAUVAIS-TILLÉ,BVA
11301750135,47.03484,2.65345,,D71,AVORD,CENTRE,FR,,AERODROME D'AVORD,LFOA
11301750136,44.51131,3.51969,,D25,MENDE,LANGUEDOC-ROUS,FR,,MENDE-BRENOUX,MEN
11301750137,44.0213,5.09258,,3491 ROUTE DE MAZAN,PERNES-LES-FONTAINES,PROVENCE-ALPES,FR,,EDGAR SOUMILLE,LFNH
11301750138,43.17329,2.74053,,D611,LEZIGNAN-CORBIERES,LANGUEDOC-ROUS,FR,,LEZIGNAN CORBIERES,LFMZ
11301750139,43.606235,5.099126,,N113,SALON-DE-PROVENCE,PROVENCE-ALPES,FR,,SALON,LFMY
11301750140,43.90406,4.89413,,ROUTE DE MARSEILLE,AVIGNON,PROVENCE-ALPES,FR,,D'AVIGNON,AVN
11301750141,43.31976,3.3594,,D37 E,PORTIRAGNES,LANGUEDOC-ROUS,FR,,BÉZIERS-VIAS,BZR
11301750142,43.57981,3.94838,,D172,MAUGUIO,LANGUEDOC-ROUS,FR,,MONTPELLIER MEDITERRANEE,MPL
11301750143,44.0731,4.1458,,D31,DEAUX,LANGUEDOC-ROUS,FR,,D'ALES DEAUX,LFMS
11301750144,43.25084,5.78373,,N82,LE CASTELLET,PROVENCE-ALPES,FR,,LE CASTELLET,CTT
11301750145,42.7412,2.8668,,AVENUE MAURICE BELLONTE,PERPIGNAN,LANGUEDOC-ROUS,FR,,PERPIGNAN-RIVESALTES,PGF
11301750146,44.14288,4.84637,,LOTISSEMENT BASE AERIENNE 115 CARITAT,ORANGE,PROVENCE-ALPES,FR,,AERO CLUB ORANGE,XOG
11301750147,43.66269,7.20097,,AVENUE DIDIER DAURAT,NICE,PROVENCE-ALPES,FR,,NICE-CÔTE D'AZUR,NCE
11301750148,43.44416,5.23174,,D20,VITROLLES,PROVENCE-ALPES,FR,,MARSEILLE PROVENCE,MRS
11301750149,43.213,2.30854,,D119,CARCASSONE,LANGUEDOC-ROUS,FR,,CARCASSONNE-SALVAZA,CCF
11301750150,43.51845,4.963515,,N1569,ISTRES,PROVENCE-ALPES,FR,,LE TUBE,QIE
11301750151,45.52953,4.29013,,A72,ANDRÉZIEUX-BOUTHÉON,RHÔNE-ALPES,FR,,SAINT-ETIENNE-BOUTHÉON,EBU
11301750152,43.55044,6.95733,,AVENUE FRANCES TONNER,CANNES,PROVENCE-ALPES,FR,,CANNES-MANDELIEU,CEQ
11301750153,43.38992,6.37049,,D17,LE CANNET-DES-MAURES,PROVENCE-ALPES,FR,,LE CANNET-DES-MAURES,LFMC
11301750154,43.503252,5.382731,,CHEMID DE LA BADESSE,AIX-EN-PROVENCE,PROVENCE-ALPES,FR,,D'AIX-LES-MILLES,LFMA
11301750155,45.72464,4.93598,,AVENUE LOUIS MOUILLARD,SAINT-PRIEST,RHÔNE-ALPES,FR,,LYON-BRON,LYN
11301750156,46.85343,1.71224,,D80,DÉOLS,CENTRE,FR,,MARCEL DASSAULT-CHÂTEAUROUX-DÉOLS,CHR
11301750157,44.90034,2.42081,,CHEMIN DE TRONQUIERES,AURILLAC,AUVERGNE,FR,,AURILLAO-TRONQUIERES,AUR
11301750158,46.16541,3.39446,,D6,CHARMEIL,AUVERGNE,FR,,CHARMEIL,VHY
11301750159,44.91268,4.96366,,LIE-DI LAS TRESCORERIE,MALISSARD,RHÔNE-ALPES,FR,,VALENCE-CHABEUIL,VAF
11301750160,46.3509,2.56758,,CHEMIN DE LA BROSSE TEMPETE,DOMERAT,AUVERGNE,FR,,MONDLUÇAN-DOMERAT,LFLT
11301750161,45.343922,5.338081,,D154 D,SAINT-ÉTIENNE-DE-SAINT-GEOIRS,RHÔNE-ALPES,FR,,GRENOBLE-SAINT-GEOIRS,GNB
11301750162,45.9304,6.10812,,ROUTE DE METZ,METZ-TESSY,RHÔNE-ALPES,FR,,D'ANNECY - HAUTE SAVOIE,NCY
11301750163,46.05116,4.00297,,ROUTE DE L'AEROPORT,SAINT-LÉGER-SUR-ROANNE,RHÔNE-ALPES,FR,,ROANNE-RENAISON,RNE
11301750164,46.40913,4.03239,,D982,SAINT YAN,BOURGOGNE,FR,,SAINT YAN,LFLN
11301750165,46.29684,4.79923,,CHEMIN DE L'AERODROME,CHARNAY-LES-MACON,BOURGOGNE,FR,,MÂCON-CHARNAY,QNX
11301750166,45.71845,5.07026,,D29,SAINT-LAURENT-DE-MURE,RHÔNE-ALPES,FR,,LYON SAINT-EXUPÉRY,LYS
11301750167,46.19594,6.26293,,90 N206,ANNEMASSE,RHÔNE-ALPES,FR,,ANNEMASSE,QNJ
11301750168,46.83005,4.82507,,N6,LA LOYÈRE,BOURGOGNE,FR,,CHALON-CHAMPFORGEUIL,LFLH
11301750169,45.5585,5.97435,,28 AVENUE DE CHAMBERY,CHALLES-LES-EAUX,RHÔNE-ALPES,FR,,CHALLES LES EAUX,LFLE
11301750170,47.06214,2.36556,,N151,BOURGES,CENTRE,FR,,BOURGES,BOU
11301750171,45.79172,3.1608,,D769,AULNAT,AUVERGNE,FR,,CLERMONT-FERRAND,CFE
11301750172,45.63771,5.89195,,N201,VOGLANS,RHÔNE-ALPES,FR,,CHAMBÉRY-AIX-LES-BAINS,CMF
11301750173,47.84472,3.50193,,D48,CHARBUY,BOURGOGNE,FR,,AUXERRE-BRANCHES,LFLA
11301750174,42.29048,9.18917,,N200,CORTE,CORSE,FR,,CORTE,LFKT
11301750175,41.92539,9.39103,,N198,VENTISERI,CORSE,FR,,SOLENZARA,SOZ
11301750176,41.65776,8.89419,,D121,PROPIANO,CORSE,FR,,PROPRIANO-TAVARIA,PRP
11301750177,41.92698,8.77925,,N193,AJACCIO,CORSE,FR,,AJACCIO-CAMPO DELL'ORO,AJA
11301750178,42.549979,8.782832,,D81,CALVI,CORSE,FR,,CALVI SAINTE-CATHERINE,CLY
11301750179,41.50142,9.11252,,D322,FIGARI,CORSE,FR,,FIGARI-SUD CORSE,FSC
11301750180,42.54858,9.47707,,D507,LUCCIANA,CORSE,FR,,BASTIA-PORETTA,BIA
11301750181,46.71937,2.948107,,D1,LURCY-LEVIS,AUVERGNE,FR,,LEVIS,LFJU
11301750182,47.56533,-0.31832,,D766,MARCÉ,PAYS DE LA LOI,FR,,ANGERS-MARCÉ,LFJR
11301750183,48.97016,6.221187,,C2,PAGNY-LÈS-GOIN,LORRAINE,FR,,METZ-NANCY-LORRAINE,ETZ
11301750184,46.905516,-0.685616,,E62,MAULEON,POITOU-CHARENTE,FR,,MAULEON,LFJB
11301750185,48.10082,5.06022,,D65,VILLIERS-LE-SEC,CHAMPAGNE-ARDE,FR,,CHAUMONT-SEMOUTIERS,XCW
11301750186,43.57073,1.47718,,2 CHEMIN CARROSSE,TOULOUSE,MIDI-PYRÉNÉES,FR,,MONTAUDRAN,XYT
11301750187,44.17644,2.51968,,D83,CASSAGNES BEGONHES,MIDI-PYRÉNÉES,FR,,CASSAGNES BEGONHES,LFIG
11301750188,43.82402,2.75137,,D32,BELMONT-SUR-RANCE,AVEYRON,FR,,SAINT-AFFRIQUE-BELMONT,LFIF
11301750189,46.53938,3.42234,,D12,TOULON-SUR-ALLIER,AUVERGNE,FR,,MOULINS-MONTBEUGNY,LFHY
11301750190,45.92453,4.6306,,VILLEFRANCHE,D38,FRONTENAS,FR,,TARARE,LFHV
11301750191,46.20814,5.28045,,CHEMIN DE COLONEL ALEXANDRE BERNARD,JASSERON,RHÔNE-ALPES,FR,,BOURG-CEYZERIAT,LFHS
11301750192,45.07506,2.98291,,D14,USSEL,AUVERGNE,FR,,SAINT-FLOUR-COLTINES,LFHQ
11301750193,45.07465,3.76017,,D906,CHASPUZAC,AUVERGNE,FR,,PUY-LOUDES,LPY
11301750194,44.54145,4.35918,,D504,VINEZAC,RHÔNE-ALPES,FR,,AUBENAS-VALS-LANAS,OBS
11301750195,45.654952,4.904768,,D57,CORBAS,RHÔNE-ALPES,FR,,LYON-CORBAS,LFHJ
11301750196,49.12363,5.47062,,D903,VERDUN,LORRAINE,FR,,LE ROZELIER,LFGW
11301750197,47.99267,3.39379,,D20,JOIGNY,BOURGOGNE,FR,,JOIGNY,LFGK
11301750198,47.04516,5.42363,,N73,TAVAUX,FRANCHE-COMTÉ,FR,,DOLE-TAVAUX,DLE
11301750199,47.01407,4.89493,,D973,VIGNOLES,CÔTE D'OR,FR,,BEANUE-CHALLANGES,LFGF
11301750200,47.74522,7.4212,,E25,MULHOUSE,ALSACE,FR,,HABSHEIM,LFGB
11301750201,48.10849,7.36327,,RUE CURIE,COLMAR,ALSACE,FR,,COLMAR-HOUSSEN,CMR
11301750202,48.421437,4.47738,,D960,SAINT-LEGER-SOUS-BRIENNE,CHAMPAGNE-ARDEN,FR,,BRIENNE LE CHATEAU,LFFN
11301750203,47.40756,-1.18814,,RUE GEORGES GUYNEMER,ANCENIS,,FR,,ANCENIS,LFFI
11301750204,46.71784,-2.38914,,REU DE KER GIGOU,I'LLE D'YEU,PAYS DE LA LOIR,FR,,I'LLE D'YEU,IDY
11301750205,48.05197,-3.65122,,RUE DE PONT PERSON,GUISCRIFF,BRETAGNE,FR,,GUISCRIFF-SCAËR,LFES
11301750206,47.47574,2.39456,,D924,AUBIGNY-SUR-NERE,CENTRE,FR,,AUBIGNY SUR NERE,LFEH
11301750207,48.05219,-2.92502,,D764,NOYAL-PONTIVY,BRETAGNE,FR,,PONTIVY-BRETAGNE,LFED
11301750208,48.45952,-5.06937,,D181,QUESSANT,BRETAGNE,FR,,OUESSANT ISLAND,LFEC
11301750209,47.322559,-3.19985,,D190,BANGOR,BRETAGNE,FR,,BELLE-ÎLE-EN-MER,LFEA
11301750210,44.45909,1.02387,,D4,MONTAYRAL,MIDI-PYRÉNÉES,FR,,MONTAYRAL,LFDX
11301750211,45.88196,-0.99119,,ROCHEFORT,D125,BEAUGEAY,FR,,ST AGNANT,RCO
11301750212,44.49648,0.19508,,RUE JEAN MERMOZ,MARMANDE,AQUITAINE,FR,,MARMANDE,LFDM
11301750213,45.498702,-1.088379,,N215,SOULAC-SUR-MER,AQUITAINE,FR,,SOULAC-LA-RUNDE,LFDK
11301750214,43.09275,1.69964,,D119,LES PUJOLS,MIDI-PYRÉNÉES,FR,,LES PUJOLS,LFDJ
11301750215,44.98174,-0.12471,,D121,LES ARTIGUES-DE-LUSSAC,AQUITAINE,FR,,AERODROME DE LIBOURNE,LFDI
11301750216,43.68832,0.60418,,N21,AUCH,MIDI-PYRÉNÉES,FR,,LAMOTHE,LFDH
11301750217,44.02912,1.37662,,RUE MAURICE DELPOUYS,MONTAUBAN,MIDI-PYRÉNÉES,FR,,MONTAUBAN,LFDB
11301750218,43.71136,-0.25265,,ROUTE DU HOUGA,AIRE-SUR-L'ADOUR,AQUITAINE,FR,,AERODROME D'AIRE-SUR-L'ADOUR,LFDA
11301750219,44.15251,-1.15794,,ROUTE D'ESCOURCE,MIMIZAN,AQUITAINE,FR,,MIMIZAN,LFCZ
11301750220,45.63382,-0.97847,,AVENUE DU 4EME ZOUAVES,MEDIS,POITOU-CHARENT,FR,,ROYAN,RYN
11301750221,44.39491,0.76087,,D661,VILLENEUVE-SUR-LOT,AQUITAINE,FR,,RODEZ-MARCILLAC,LFCW
11301750222,45.53884,2.41984,,D105,SAINT-EXUPERY-LES-ROCHES,LIMOUSIN,FR,,D'USSEL-THALAMY,LFCU
11301750223,45.28078,-0.45377,,D23,MARCILLAC,,FR,,MONTENDRE-MARCILLAC,RDZ
11301750224,43.76706,2.00551,,2 RUE DU CORPS EXPEDITIONNAIRE FR EN IT,GRAULHET,MIDI-PYRÉNÉES,FR,,MONTDRAGON,LFCQ
11301750225,43.9833,3.18418,,A75,L'HOSPITALET-DU-LARZAC,MIDI-PYRÉNÉES,FR,,MILLAU-LARZAC,LFCM
11301750226,43.59443,1.49644,,ROUTE DE CASTRES,BALMA,MIDI-PYRÉNÉES,FR,,LASBORDES,LFCL
11301750227,43.55663,2.27913,,ROCADE SUD,LABRUGUIERE,MIDI-PYRÉNÉES,FR,,CASTRES- MAZAMET,DCM
11301750228,43.91765,2.11781,,RUE DE CHARTRES,LE SEQUESTRE,MIDI-PYRÉNÉES,FR,,D'ALBI-LE SÉQUESTRE,LBI
11301750229,44.59753,-1.11313,,AVENUE DE L'AERODROME,TESTE-DE-BUCH,AQUITAINE,FR,,LA TESTE DE BUCH,XAC
11301750230,43.01393,1.11117,,AVENUE CHARLES DE GAULLE,LORP-SENTRAILLE,,FR,,SAINT-GIRONS-ANTICHAN,LFCG
11301750231,44.34489,1.48264,,CAHORS,D19,FONTANES,FR,,LALBENQUE,ZAO
11301750232,43.47122,-1.53439,,ESPLANADE DE L'EUROPE,BIARRITZ,AQUITAINE,FR,,BIARRITZ-ANGLET-BAYONNE,BIQ
11301750233,45.19473,0.80627,,D5 E,BASSILLAC,AQUITAINE,FR,,PÉRIGUEUX-BASSILLAC,PGX
11301750234,45.1466,1.47416,,AVENUE GENERAL PIERRE POUYADE,BRIVE-LA-GAILLARDE,LIMOUSIN,FR,,BRIVE-LAROCHE,BVE
11301750235,45.7272,0.20274,,D23,CHAMPNIERS,POITOU-CHARENT,FR,,D'ANGOULÊME - BRIE CHAMPNIERS,ANG
11301750236,43.18716,0.00934,,N21,JULIAN,MIDI-PYRÉNÉES,FR,,TARBES-OSSUN-LOURDES,LDE
11301750237,44.37581,-1.130351,,ROUTE DE PARENTIS,BISCARROSSE,AQUITAINE,FR,,BISCARROSSE-PARENTIS,LFBS
11301750238,43.45002,1.26865,,RUE DE L'AVIATION,MUREL,MIDI-PYRÉNÉES,FR,,LHERM,LFBR
11301750239,43.3881,-0.415279,,D716,SAUVAGNON,AQUITAINE,FR,,PAU-PYRÉNÉES,PUF
11301750240,43.63235,1.37803,,D1 E,BLAGNAC,MIDI-PYRÉNÉES,FR,,TOULOUSE-BLAGNAC,TLS
11301750241,43.910681,-0.483093,,D53,MONT-DE-MARSAN,AQUITAINE,FR,,MONT DE MARSAN,XMJ
11301750242,46.31837,-0.39789,,D948,NIORT,POITOU-CHARENT,FR,,NIORT-SOUCHÉ,NIT
11301750243,45.86438,1.175902,,D20,LIMOGES,LIMOUSIN,FR,,LIMOGES,LIG
11301750244,46.22392,2.35698,,D14 A,AUGE,LIMOUSIN,FR,,MONTLUÇON-GUÉRET,FBK
11301750245,46.58511,0.31146,,RUE SU SERGENT RENE LEBON,BIARD,POITOU-CHARENT,FR,,POITIERS-BIARD,PIS
11301750246,46.174,-1.19835,,RUE DE BETHENCOURT,LA ROCHELLE,POITOU-CHARENT,FR,,LA ROCHELLE-ILE DE RÉ,LRH
11301750247,45.651788,-0.291207,,D24,GENSAC-LA-PALLUE,POITOU-CHARENT,FR,,COGNAC-CHÂTEAUBERNARD,CNG
11301750248,43.536288,1.365289,,D15,CUGNAUX,MIDI-PYRÉNÉES,FR,,FRANCAZAL,LFBF
11301750249,44.82191,0.514,,C205,SAINT-NEXANS,AQUITAINE,FR,,BERGERAC-ROUMANIÈRES,EGC
11301750250,44.8337,-0.69195,,N563,MÉRIGNAC,AQUITAINE,FR,,BORDEAUX,BOD
11301750251,44.554504,-1.088845,,D652,GUJAN-MESTRAS,AQUITAINE,FR,,CAZAUX,LFBC
11301750252,44.17781,0.5959,,26 RUE VICTOR DURUY,ESTILLAC,AQUITAINE,FR,,AGEN-LA GARENNE,AGF
11301750253,49.86799,2.37935,,N29,GLISY,PICARDY,FR,,AMIENS-GLISY,LFAY
11301750254,49.972963,2.686152,,D329,MÉAULTE,PICARDY,FR,,BRAY,LFAQ
11301750255,50.33407,3.4562,,AVENUE MARC LEFRANCQ,PROUVY,NORD-PAS-DE-CAL,FR,,DENAIN,XVS
11301750256,48.53752,-0.40208,,D916,COUTERNE,BASSE-NORMANDI,FR,,BAGNOLES-DE-L'OME,LFAO
11301750257,48.59382,3.01425,,D56,CLOS-FONTAINE,ÎLE-DE-FRANCE,FR,,NANGIS-LES-LOGES,LFAI
11301750258,49.87243,3.0489,,D15,MONCY-LAGACHE,PICARDY,FR,,PERONNE ST QUENTIN,LFAG
11301750259,50.95486,1.95544,,610 RUE DE L'AEROPORT,MARCK,NORD-PAS-DE-CA,FR,,CALAIS DUNKERQUE,CQF
11301750260,46.23199,6.11089,,ROUTE DE L'AÉROPORT,LE GRAND-SACONNEX,FRE,CH,,GENÈVE,GVA
11301750261,51.928176,8.318342,,B513,HARSEWINKEL,,DE,,GUTERSLOH,GUT
11301750262,54.15922,8.897139,,AM FLUGPLATZ,OESTERDICHSTRICH,,DE,,HEIDE-BÜSUM,HEI
11301750263,48.7074,11.236447,,ZELLER STRASSE,NEUBURG AN DER DONAU,,DE,,NEUBURG,ETSN
11301750264,48.180869,10.843583,,B17,GRABEN,,DE,,LECHFELD,ETSL
11301750265,48.7078,11.501912,,AM WALDRAND,MANCHING,,DE,,INGOLSTADT MANCHING,ZNQ
11301750266,51.786833,13.158167,,B187,HOLZDORF,,DE,,HOLZDORF,ETSH
11301750267,48.1947,11.26315,,ZENETTISTRASSE,FÜRSTENFELDBRUCK,,DE,,FÜRSTENFELDBRUCK,FEL
11301750268,48.3107,11.9193,,ST2082,ERDING,,DE,,ERDING,ETSE
11301750269,50.1837,7.0567,,L52,ALFEN,,DE,,BÜCHEL,ETSB
11301750270,48.07828,10.894686,,ST2052,PENZING,,DE,,LANDSBERG AM LECH,ETSA
11301750271,50.04507,8.30133,,BOELCKESTRASSE,WEISBADEN,,DE,,WIESBADEN AAF,WIE
11301750272,49.55631,8.4686,,VIERNHEIMERWEG,MANNHEIM,,DE,,COLEMAN AAF,ETOR
11301750273,49.62797,11.76964,,AS16,VILSECK,,DE,,VILSECK AAF,ETOI
11301750274,52.466822,9.431633,,FLIEGER STRASSE,WUNSTORF,,DE,,WUNSTORF,ETNW
11301750275,53.60354,13.28553,,K36,TROLLENHAGEN,,DE,,NEUBRANDENBURG,FNB
11301750276,53.551816,7.663742,,B210,WITTMUND,,DE,,WITTMUNDHAFEN,ETNT
11301750277,54.42792,9.53161,,AM SCHWIMMBAD,KROPP,,DE,,SCHLESWIG,ETNS
11301750278,52.323755,7.525339,,UTHUISER STRASSE,RHEINE,,DE,,HOPSTEN,ETNP
11301750279,50.8205,6.6335,,B477,NÖRVENICH,,DE,,NÖRVENICH,ETNN
11301750280,53.54769,7.88583,,RAHRDUMERSTRASSE,JEVER,,DE,,JEVER,ETNJ
11301750281,53.898503,12.27947,,L13,WEITENDORF,,DE,,ROSTOCK-LAAGE,RLG
11301750282,54.31282,9.51119,,L39,HOHN,,DE,,HOHN,ETNH
11301750283,50.9549,6.06737,,TEVERENER HEIDE,GEILENKIRCHEN,,DE,,GEILENKIRCHEN,GKE
11301750284,52.58322,8.36286,,LEHMDER DAMM,DIEPHOLZ,,DE,,DIEPHOLZ,ETND
11301750285,53.76641,8.63167,,BUNDESTRASSE,NORDHOLZ,,DE,,NORDHOLZ,NDZ
11301750286,54.618645,9.364277,,HAUPTSTRASSE,EGGEBEK,,DE,,EGGEBEK,ETME
11301750287,49.7469,10.189338,,ST2272,KITZINGEN,,DE,,KITZINGEN AAF,ETIN
11301750288,49.2154,11.8278,,ST2234,HOHENFELS,,DE,,HOHENFELS AAF,ETIH
11301750289,50.15898,8.97531,,ZUM FLIEGERHORST,ERLENSEE,,DE,,HANAU AAF,ETID
11301750290,49.69878,11.94172,,B299,GRAFENWÖHR,,DE,,GRAFENWÖHR AAF,ETIC
11301750291,52.903555,10.178093,,GROSSE HORSTSTRASSE,FASSBERG,,DE,,FASSBERG,ETHS
11301750292,49.211332,11.107685,,B2,ROTH,,DE,,ROTH,ETHR
11301750293,49.39676,9.96323,,L1020,NIEDERSTETTEN,,DE,,NIEDERSTETTEN,ETHN
11301750294,48.216099,9.900965,,K7582,LAUPHEIM,,DE,,LAUPHEIM,ETHL
11301750295,50.364672,7.296542,,B256,MENDIG,,DE,,MENDIG,ETHM
11301750296,51.122631,9.284993,,L3150,FRITZLAR,,DE,,FRITZLAR,ETHF
11301750297,52.29939,7.38255,,HOHEALLEE,RHEINE,,DE,,RHEINE BENTLAGE,ETHE
11301750298,52.60578,10.02265,,L310,WIETZENBRUCH,,DE,,CELLE,ZCN
11301750299,52.17517,9.06357,,SAAKSCHER WEG,RINTEIN,,DE,,RINTEIN,ETHB
11301750300,49.654337,9.956396,,FLUGPLATZSTRASSE,GIEBELSTADT,,DE,,GIEBELSTADT AAF,GHF
11301750301,49.917916,10.920179,,MEMMELSDORFER STRASSE,BAMBERG,,DE,,BREITENAU AAF,ETEJ
11301750302,50.825641,6.180981,,ESCHWEILERSTRASSE,WÜRSELEN,,DE,,MERZBRÜCK,AAH
11301750303,49.438191,7.567983,,FLUGPLATZ,RAMSTEIN,,DE,,RAMSTEIN AB,RMS
11301750304,49.98093,6.686518,,L46,SPANGDAHLEM,,DE,,SPANGDAHLEM AB,SPM
11301750305,58.88353,5.62389,,FLYPASSVEGEN,STAVANGER,,NO,,SOLA,SVG
11301750306,63.45147,10.91602,,705,STJØRDAL,,NO,,VAERNES,TRD
11301750307,59.18329,10.2484,,285,SANDEFJORD,,NO,,TORP,TRF
11301750308,65.9517,12.46593,,17,SANDNESSJØEN,,NO,,STOKKA,SSJ
11301750309,69.67888,18.903,,FLYVEIEN,TROMSØ,,NO,,LANGNES,TOS
11301750310,70.36095,31.04179,,E75,VARDØ,,NO,,SVARTNES,ENSS
11301750311,69.78591,20.9507,,FLYFEGEN,SØRKJOSEN,,NO,,SØRKJOSEN,ENSR
11301750312,59.79003,5.35088,,FLYPASSVEGEN,STORD,,NO,,SØRSTOKKEN,SRP
11301750313,59.18221,9.56335,,FLYPLASSVEGEN,SKEIN,,NO,,GEITERYGGEN,SKE
11301750314,61.15882,7.13643,,213,SOGNDAL,,NO,,HAUKASEN,SOG
11301750315,59.38675,10.75318,,FLYPASSVEIEN,RYGGE,,NO,,RYGGE,ENRY
11301750316,62.57993,11.3556,,531,RØROS,,NO,,RØROS,RRS
11301750317,59.56674,9.20928,,RESHJEMVEGEN,NOTODDEN,,NO,,NOTODDEN,NTB
11301750318,63.69853,9.63928,,UTHAUGSVEIEN,BREKSTAD,,NO,,ØRLAND AB,OLA
11301750319,70.06396,24.9288,,E6,PORSANGER,,NO,,BANAK,LKL
11301750320,65.78507,13.21656,,244,VEFSN,,NO,,KJAERSTAD,MJF
11301750321,62.74712,7.25479,,E39,MOLDE,,NO,,ÅRØ,MOL
11301750322,58.10852,6.63584,,674,FARSUND,,NO,,LISTA,FAN
11301750323,59.97366,11.03784,,FETVEIEN,SKEDSMO,,NO,,KJELLER,ENKJ
11301750324,69.72219,29.88699,,GARNISONSBAKKEN,SØR-VARANGER,,NO,,HOYBUKTMOEN,KKN
11301750325,63.10871,7.80142,,FLYPASSVEIEN,KRISTIANSUND,,NO,,KVERNBERGET,KSU
11301750326,70.48739,22.14631,,SEIVÅGVEIEN,HASVIK,,NO,,HASVIK,ENHK
11301750327,59.34419,5.21891,,HELGANESVEGEN,KARMØY,,NO,,KARMØY,HAU
11301750328,60.17792,11.09528,,35,ULLENSAKER,,NO,,GARDERMOEN,OSL
11301750329,61.58609,5.02455,,THOR SOLBERGVEGEN,FLORØ,,NO,,FLORØ,FRO
11301750330,60.99995,9.29992,,263,NORD-AURDAL,,NO,,LEIRIN,VDB
11301750331,68.49162,16.69265,,833,EVENES,,NO,,EVENES,EVE
11301750332,60.419,8.49949,,252,HOL,,NO,,DAGALI,DLD
11301750333,69.06408,18.54338,,853,MÅLSELV,,NO,,BARDUFOSS,BDU
11301750334,58.20556,8.08251,,KJEVIKVEIEN,KRISTIANSAND,,NO,,KJEVIK,KRS
11301750335,70.60186,29.67651,,331,BÅTSFJORD,,NO,,BÅTSFJORD,ENBS
11301750336,60.29,5.23294,,FLYPASSVEGEN,BERGEN,,NO,,FLESLAND,BGO
11301750337,67.27313,14.3644,,,BODØ,,NO,,BODØ,BOO
11301750338,65.46219,12.20915,,FLYPASSVEGEN,,BRØNNØYSUND,NO,,BRØNNØY,NN
11301750339,60.63982,6.49498,,FLYPASSVEGEN,VOSS,,NO,,BOMOEN,ENBM
11301750340,61.39076,5.76607,,423,GAULAR,,NO,,BRINGELAND,FDE
11301750341,69.97321,23.26855,,BOSSEKOPVEIEN,ALTA,FINNMARK,NO,,ALTA,ALF
11301750342,69.31142,16.11068,,E82,ANDØY,NORDLAND,NO,,ANDØYA,ANX
11301750343,62.55988,6.12685,,658,GISKE,,NO,,VIGRA,AES
11301750344,55.78119,12.32416,,LEJRVEJ,VÆRLØSE,,DK,,VÆRLØSE,EKVL
11301750345,57.08614,9.87446,,LUFTHAVNSVEJ,NOORRESUNDBY,,DK,,AALBORG,AAL
11301750346,55.99157,8.3358,,LUFTHAVENSVEJ,SKJERN,,DK,,STAUNING,STA
11301750347,56.84698,9.46868,,AGGERSUNDVEJ,AARS,,DK,,AARS,EKVH
11301750348,55.44043,9.32758,,LUFTHAVENSVEJ,VAMDRUP,,DK,,KOLDING VAMDRUP,EKVD
11301750349,57.07334,8.68773,,LUFTHAVENSVEJ,HANSTHOLM,,DK,,THISTED,TED
11301750350,55.2409,9.24887,,RIVEVEJ,VOJENS,,DK,,SKRYDSTRUP,SKS
11301750351,56.55465,9.16285,,LUFTHAVENSVEJ,HØJSLEV,,DK,,SKIVE,SQW
11301750352,57.50448,10.23331,,TAAGHOLTVEJ,SINDAL,,DK,,SINDAL,CNL
11301750353,54.96028,9.78477,,LUFTHAVNSVEJ,SØNDERBORG,,DK,,SØNDERBORG,SGD
11301750354,55.07107,14.75128,,SØNDRE LANDERVEJ,RØNNE,,DK,,BORNHOLM RONNE,RNN
11301750355,55.59361,12.10365,,LUFTHAVNSVEJ,,,DK,,ROSKILDE,RKE
11301750356,54.88044,9.28658,,TØNDERVEJ,PADBORG,,DK,,KRUSA PADBORG,EKPB
11301750357,55.47245,10.32968,,LUFTHAVNVEJ 143,ODENSE,,DK,,ODENSE,ODE
11301750358,54.69498,11.45117,,EGEBYVEJ,RØDBY,,DK,,LOLLAND FALSTER MARIBO,MRW
11301750359,57.27424,11.00816,,FLYVEPLADSVEJ,LÆSØ,,DK,,LÆSØ,BYR
11301750360,56.31261,9.12563,,HESSELLUNDVEJ 8,KARUP,,DK,,KARUP,KRP
11301750361,55.94044,12.26674,,GRØNHOLTVEJ,FREDENSBORG,,DK,,GRØNHOLT HILLERØD,EKGH
11301750362,55.5211,8.54475,,VESTRE LUFTHAVNSVEJ,ESBJERG,,DK,,ESBJERG,EBJ
11301750363,50.76166,7.160912,,RICHTOFENSTRASSE,SANKT AUGUSTIN,,DE,,SPORT HANGELAR,EKDB
11301750364,55.62994,12.65267,,ELLEHAMMERSVEJ,KASTRUP,,DK,,KØBENHAVN,CPH
11301750365,56.30793,10.62794,,STABRANDVEJ,KOLIND,,DK,,AARHUS,AAR
11301750366,55.74788,9.13941,,LUFTHAVNSVEJ,GADBJERG,,DK,,BILLUND,BLL
11301750367,51.4346,4.31976,,ZANDFORT,HOODERHEIDE,,NL,,WOENSDRECHT,BZM
11301750368,51.65458,5.67322,,ZEELANDSEDIJK,VOLKER,,NL,,VOLKEL,EHVK
11301750369,52.18113,4.40924,,1E MIENTLAAN,KATWIJK,,NL,,VALKENBURG,LID
11301750370,52.26264,6.89634,,VLIEGVELDWEG,ENSCHEDE,,NL,,TWENTE,ENS
11301750371,52.12236,5.28168,,AMERSFOORTSESTRAAT,SOESTERBERG,UTRECHT,NL,,SOESTERBERG,UTC
11301750372,51.94705,4.42727,,AIRPORTBAAN,ROTTERDAM,,NL,,ROTTERDAM ZESTIENHOVEN,RTM
11301750373,53.22053,5.78045,,N357,LEEUWARDEN,,NL,,LEEUWARDEN,LWR
11301750374,52.45793,5.53541,,N302,LELYSTAD,,NL,,LELYSTAD,LEY
11301750375,51.57703,4.92593,,JULIANSTRAAT,RIJEN,,NL,,GILZE RIJEN,GLZ
11301750376,52.92198,4.79057,,LUCHTHAVENWEG,DEN HELDER,,NL,,DE KOOY,DHR
11301750377,53.1299,6.59059,,BURGEMEESTER J G LEGROWEG,EELDE,,NL,,GRONINGEN,GRQ
11301750378,51.45644,5.40106,,ANTHONY FOKKERWEG,EINDHOVEN,,NL,,EINDHOVEN,EIN
11301750379,53.11752,6.11479,,N31,DRACHTEN,,NL,,DRACHTEN,EHDR
11301750380,52.0628,5.89587,,N804,DEELEN,,NL,,DEELEN,EHDL
11301750381,50.92529,5.77753,,EUROPALAAN,GEVERIK,,NL,,ZUID-LIMBURG,MST
11301750382,51.25946,5.59572,,LUCHTHAVENWEG,BUDEL,,NL,,KEMPEN,EHBD
11301750383,52.653,0.54223,,SQUIRES HILL,MARHAM,,GB,,MARHAM,KNF
11301750384,52.30729,4.75064,,CEINTUURBAAN ZUID,HAARLEMMERMEER,,NL,,SCHIPHOL,AMS
11301750385,52.96019,-0.55043,,HIGH DIKE,ANCASTER,GRANTHAM,GB,,BARKSTON HEATH,EGYE
11301750386,53.0356,-0.5025,,CRANWELL AVE,CRANWELL,,GB,,CRANWELL,EGYD
11301750387,52.75688,1.33893,,HAUTBOIS RD,LAMAS,,GB,,COLTISHALL,EGYC
11301750388,54.2006,-1.40675,,A167,TOPCLIFFE,,GB,,TOPCLIFFE,EGXZ
11301750389,53.01433,-0.9046,,A46,FLINTHAM,,GB,,SYERSTON,EGXY
11301750390,53.16628,-0.533,,MERE RD,WADDINGTON,,GB,,WADDINGTON,WTN
11301750391,54.04021,-1.24452,,MILL LANE,LINTON ON OUSE,,GB,,LINTON UPON OUSE,EGXU
11301750392,52.61231,-0.44019,,TOWNS END RD,WITTERING,,GB,,WITTERING,EGXT
11301750393,53.30035,-0.54149,,A15,LINCOLN,,GB,,SCAMPTON,EGXP
11301750394,52.71386,-0.66106,,HALL CLOSE,COTTESMORE,,GB,,COTTESMORE,EGXJ
11301750395,52.33385,0.77934,,GREEN LANE,HONINGTON,,GB,,HONINGTON,EGXH
11301750396,53.83603,-1.20865,,BUSK LANE,CHURCH FENTON,,GB,,CHURCH FENTON,EGXG
11301750397,54.1338,-1.40612,,BOROUGHBRIDGE LN,DISHFORTH,,GB,,RAF DISHFORTH,EGXD
11301750398,54.2902,-1.5239,,WOODLAND DR,GATENBY,,GB,,LEEMING,EGXE
11301750399,53.09622,-0.16329,,OLD BOSTON RD,CONINGSBY,,GB,,CONINGSBY,QCY
11301750400,51.5553,-0.40523,,WEST END RD,SOUTH RUISLIP,,GB,,NORTHOLT,NHT
11301750401,52.63967,-2.30261,,OLD WORCHESTER RD,ALBRIGHTON,,GB,,COSFORD,EGWC
11301750402,51.245,-0.94875,,CHURCHILL AVE,ODIHAM,,GB,,ODIHAM,EGVO
11301750403,51.7556,-1.60474,,ALVESCOT RD,CARTERTON,,GB,,BRIZE NORTON STATION,BZZ
11301750404,52.34772,-0.12089,,SAWTRY WAY,HOUGHTON,,GB,,WYTON,QUY
11301750405,51.69102,-1.78445,,TOTTERDOWN LN,FAIRFORD,,GB,,FAIRFORD,FFD
11301750406,52.115,0.979,,THE STREET,GREAT BRICETT,,GB,,WATTISHAM,EGUW
11301750407,51.4493,-2.27026,,DONCOMBE LANE,NORTH COLERNE,,GB,,COLERNE,EGUO
11301750408,52.37195,0.4794,,THE STREET,BECK ROW,,GB,,MILDENHALL,MHZ
11301750409,52.395,0.5518,,BRANDON RD,RAF LAKENHEATH,,GB,,RAF LAKENHEATH,LKZ
11301750410,51.61929,-1.11406,,A4074,BENSON,OXFORDSHIRE,GB,,BENSON,BEX
11301750411,50.3267,-5.1734,,B3285,TREVELLAS,,GB,,PERRANPORTH,EGTP
11301750412,50.863,-3.2226,,MANLEYS LN,DUNKESWELL,,GB,,DUNKESWELL,EGTU
11301750413,51.83063,-1.30944,,LANGFORD LANE,KIDLINGTON,,GB,,OXFORD,OXF
11301750414,51.52322,-2.57135,,GLOUCESTER RD,BRISTOL,,GB,,BRISTOL FILTON,FZO
11301750415,50.72967,-3.41655,,B3184,EXETER,,GB,,EXETER,EXT
11301750416,52.07328,-0.62703,,CENTRAL AVE,CRANFIELD,,GB,,CRANFIELD,EGTC
11301750417,51.108,-0.5153,,A281,ALFOLD,,GB,,DUNSFOLD AERODROME,EGTD
11301750418,53.3967,-1.3829,,EUROPA LINK,CATCLIFFE,,GB,,SHEFFIELD CITY,SZD
11301750419,51.71558,0.15915,,MERLIN WAY,NORTH WEALD,,GB,,NORTH WEALD,EGSX
11301750420,52.0948,0.12774,,A505,WHITTLESFORD,,GB,,DUXFORD,QFO
11301750421,52.6688,1.271,,HOLT RD,HELLESDON,,GB,,NORWICH,NWI
11301750422,51.87734,0.24789,,BASSINGBOURN ROUNDABOUT,STANSTED,,GB,,STANSTED,STN
11301750423,52.4733,-0.24302,,STATION RD,HOLME,,GB,,CONINGTON,EGSF
11301750424,52.21126,0.17169,,NEWMARKET RD,CAMBRIDGE,,GB,,CAMBRIDGE,CBG
11301750425,57.71072,-3.30581,,B9135,LOSSIEMOUTH,,GB,,LOSSIEMOUTH,LMO
11301750426,57.6387,-3.5589,,B9089,KINLOSS,,GB,,RAF KINLOSS,FSS
11301750427,56.37289,-2.86844,,A919,LEUCHARS,,GB,,LEUCHARS,ADX
11301750428,56.48963,-6.87922,,B8065,CROSSAPOL,,GB,,TIREE,TRE
11301750429,58.20412,-6.31951,,RATHAD A BHRAIGH,ISLE OF LEWIS,,GB,,STORNOWAY,SYY
11301750430,56.45441,-3.01469,,RIVERSIDE DRIVE,DUNDEE,,GB,,DUNDEE,DND
11301750431,57.47333,-7.37876,,B892,ISLE OF BENBECULA,,GB,,BENBECULA,BEB
11301750432,60.4316,-1.29611,,B9076,SHETLAN,,GB,,SCATSTA,SCS
11301750433,55.50844,-4.61307,,A79,GLASGOW,,GB,,PRESTWICK INTL,PIK
11301750434,55.68547,-6.2491,,A846,GLENEGEDALE,,GB,,ISLAY,ILY
11301750435,55.94516,-3.36183,,JUBILEE ROAD,EDINBURGH,,GB,,EDINBURGH,EDI
11301750436,57.53116,-4.04643,,A96,INVERNESS,,GB,,INVERNESS,INV
11301750437,58.44926,-3.08877,,ACKERGILL ST,WICK,,GB,,WICK,WIC
11301750438,57.19652,-2.20917,,ARGYLL ROAD,ABERDEEN,,GB,,DYCE,ABZ
11301750439,59.8762,-1.30106,,A970,VIRKIE,,GB,,SUMBURGH,LSI
11301750440,58.93662,-2.86009,,A960,TANKERNESS,ORKNEY ISLANDS,GB,,KIRKWALL,KOI
11301750441,53.58355,-3.04568,,FORMBY BY PASS,FORMBY,,GB,,WOODVALE,EGOW
11301750442,53.2749,-4.5153,,HOLYHEAD RD,ANGLESEY,,GB,,VALLEY,EGOV
11301750443,52.8798,-2.5308,,A4118,MARKET DRAYTON,,GB,,TERNHILL,EGOE
11301750444,52.8,-2.6566,,B5063,SHAWBURY,,GB,,SHAWBURY,EGOS
11301750445,52.8201,-4.1008,,A496,LLANBEDR,,GB,,LLANBEDR,EGOD
11301750446,52.82409,-1.32465,,ASHBY ROAD,DISEWORTH,,GB,,EAST MIDLANDS,EMA
11301750447,54.51869,-1.43943,,A67,DARLINGTON,,GB,,TEESSIDE INTL,MME
11301750448,55.03652,-1.71462,,B6918,NEWCASTLE UPON TYNE,,GB,,NEWCASTLE UPON TYNE,NCL
11301750449,53.1707,-2.97678,,CHESTER RD,BROUGHTON,,GB,,HAWARDEN,CEG
11301750450,53.75017,-2.89328,,LYTHAM RD,WARTON,,GB,,WARTON,EGNO
11301750451,53.8707,-1.658,,WHITEHOUSE LANE,LEEDS,,GB,,LEEDS BRADFORD,LBA
11301750452,54.13117,-3.26367,,BAY VIEW ROAD,CUMBRIA,ENGLAND,GB,,ISLE OF WALNEY,BWF
11301750453,53.58363,-0.35018,,FRANKLIN WAY,KIRMINGTON,,GB,,HUMBERSIDE,HUY
11301750454,53.77858,-3.04554,,SQUIRES GATE LANE,BLACKPOOL,,GB,,BLACKPOOL,BLK
11301750455,54.9312,-2.81362,,A689,CARLISLE,,GB,,CARLISLE,CAX
11301750456,53.27786,-0.95064,,DOVER BOTTOM,GAMSTON,,GB,,RETFORD GAMSTON,EGNE
11301750457,53.72994,-0.57311,,ELLOUGHTON RD,BROUGH,,GB,,BROUGH,EGNB
11301750458,51.349,1.347,,MANSTON RD,RAMSGATE,,GB,,KENT,MSE
11301750459,50.96004,0.9191,,ROMNEY ROAD,LYDD,,GB,,LYDD,LYX
11301750460,51.56641,0.70237,,WELLS AVE,SOUTHEND ON SEA,,GB,,SOUTHEND,SEN
11301750461,51.48068,-0.45253,,TUNNEL RD,HOUNSLOW,,GB,,HEATHROW TERMS 1-3,LHR
11301750462,51.45786,-0.44391,,SOUTHERN PERIMETER,HOUNSLOW,,GB,,HEATHROW TERM 4,LHR
11301750463,51.32064,-0.86122,,A30,HARTFORD BRIDGE,,GB,,BLACKBUSHE,BBS
11301750464,51.66662,-1.0717,,MONUMENT RD,CHALGROVE,,GB,,CHALGROVE,EGLJ
11301750465,51.5028,0.0501,,HARTMANN RD,LONDON,,GB,,LONDON CITY,LCY
11301750466,51.2839,-0.77137,,ELLES RD,FARNBOROUGH,,GB,,FARNBOROUGH,FAB
11301750467,51.21,-0.12558,,M23,REDHILL,,GB,,REDHILL AERODROME,KRH
11301750468,51.16199,-0.1722,,AIRPORT WAY,GATWICK,,GB,,GATWICK,LGW
11301750469,51.33217,0.02742,,MAIN ROAD,WESTERHAM,,GB,,BIGGIN HILL,BQH
11301750470,50.83323,-0.28908,,CECIL PASHLEY WAY,SHOREHMAM BY SEA,,GB,,SHOREHAM,ESH
11301750471,51.18983,-1.04515,,AVENUE RD,HERRIARD,,GB,,LASHAM,QLA
11301750472,50.95099,-1.36217,,MITCHELL WAY,SOUTHAMPTON,,GB,,SOUTHAMPTON,SOU
11301750473,50.77434,-1.83229,,PARLEY LANE,HURN,,GB,,BOURNEMOUTH,BOH
11301750474,50.41983,-4.1151,,PLYMBRIDGE LANE,PLYMOUTH,,GB,,PLYMOUTH,PLH
11301750475,51.87627,-0.3808,,AIRPORT WAY,LUTON,,GB,,LUTON AIRPORT,LTN
11301750476,51.38574,-2.70188,,NORTH SIDE ROAD,BRISTOL,,GB,,BRISTOL INTL,BRS
11301750477,53.33875,-2.85844,,SPEKE HALL AVE,LIVERPOOL,,GB,,JOHN LENNON,LPL
11301750478,51.6015,-4.06118,,A4118,SWANSEA,,GB,,SWANSEA,SWS
11301750479,51.39778,-3.33481,,PORT ROAD,PORTHKERRY,,GB,,CARDIFF,CWL
11301750480,51.83076,-4.95969,,WITHYBUSH RD,TANGIERS,,GB,,HAVERFORDWEST,HAW
11301750481,55.45237,-5.65859,,A83,CAMPBELTOWN,,GB,,CAMPBELTOWN,GQJ
11301750482,56.4594,-5.3924,,A828,NORTH CONNEL,,GB,,OBAN,EGEO
11301750483,51.01056,-2.64463,,PYLE LN,PODIMORE,,GB,,YEOVILTON,YEO
11301750484,51.4054,-3.4558,,B4265,BOVERTON,,GB,,ST ATHAN,EGDX
11301750485,50.08,-5.2556,,A3083,HELSTON,,GB,,CULDROSE,EGDR
11301750486,50.0022,-5.2143,,A3083,RUAN MINOR,,GB,,PREDANNACK,EGDO
11301750487,51.1678,-1.75878,,BOSCOMBE RD,SALISBURY,,GB,,BOSCOMBE DOWN,EGDM
11301750488,50.4349,-5.0132,,A3059,TREBARBER,,GB,,NEWQUAY,NQY
11301750489,51.50523,-1.96767,,A3102,LYNEHAM,,GB,,LYNEHAM,LYE
11301750490,51.09555,-4.14163,,A361,CHIVENOR,,GB,,CHIVENOR,EGDC
11301750491,53.48544,-0.989,,A614,FINNINGLEY,,GB,,DONCASTER SHEFFIELD,DSA
11301750492,53.07017,-4.31551,,A499,CAERNARFRON,,GB,,CAERNARFON,EGCK
11301750493,53.3425,-2.16001,,CHESTER RD,WOODFORD,,GB,,MANCHESTER WOODFORD,EGCD
11301750494,53.36769,-2.27571,,WORLD WAY,MANCHESTER,,GB,,MANCHESTER INTL,MAN
11301750495,52.19215,-1.60489,,LOXLEY RD,WELLESBOURNE,,GB,,WELLESBOURNE MOUNTFORD,EGBW
11301750496,52.05306,-1.1181,,1 THE AVE,WHITFIELD,,GB,,TURWESTON,EGBT
11301750497,51.66672,-2.04925,,A429,KEMBLE,,GB,,KEMBLE,EGBP
11301750498,52.5132,-2.2631,,CRAB LN,BOBBINGTON,,GB,,WOLVERHAMPTON,EGBO
11301750499,52.92315,-1.09264,,TOLLERTON ROAD,TOLLERTON,,GB,,TOLLERTON,EGBN
11301750500,51.89743,-2.17308,,B4063,DOWN HATHERLEY,,GB,,GLOUCESTERSHIRE,GLO
11301750501,52.3677,-1.49205,,COVENTRY ROAD,COVENTRY,,GB,,COVENTRY,CVT
11301750502,52.60242,-1.04142,,GARTREE RD,LEICESTER,,GB,,LEICESTER,EGBG
11301750503,52.45203,-1.73074,,AIRPORT WAY,BIRMINGHAM,,GB,,BIRMINGHAM,BHX
11301750504,55.03644,-7.15617,,CLOONEY RD,EGLINTON,,GB,,CITY OF DERRY AIRPORT,LDY
11301750505,54.61437,-5.86894,,SYDENHAM BYPASS,BELFAST,,GB,,BELFAST CITY AIRPORT,BHD
11301750506,54.39545,-7.64351,,B82,ENNISKILLEN,,GB,,ST ANGELO,ENK
11301750507,54.66434,-6.21261,,AIRPORT ROAD,CRUMLIN,,GB,,BELFAST INTL,BFS
11301750508,54.916462,8.323766,,BAHNWEG,SYLT-OST,,DE,,WESTERLAND-SYLT,GWT
11301750509,54.28151,9.59442,,SCHACHTHOLM,HÖRSTEN,,DE,,RENDSBURG SCHACHTHOLM,EDXR
11301750510,53.70245,7.81019,,B461,WITTMUND,,DE,,HARLE,EDXP
11301750511,54.776719,9.383249,,L17,FLENSBURG,,DE,,FLENSBURG-SCHÄFERHAUS,EDXF
11301750512,54.5049,9.12664,,AM FLUGPLATZ 1,SCHWESING,,DE,,HUSUM,EDXJ
11301750513,53.69882,7.16256,,AM HAFEN,NORDERNEY,,DE,,NORDERNEY,EDWY
11301750514,52.9074,8.03278,,FLUGPLATZWEG,CLOPPENBURG,,DE,,VARRELBUSCH,VAC
11301750515,53.627231,7.196402,,L5,NORDEN,,DE,,NORDEN-NORDDEICH,NOD
11301750516,53.592902,6.69049,,OSTFRIESENSTRASSE,BORKUM,,DE,,BORKUM,EDWR
11301750517,53.035712,8.512061,,OTTO-LILIENTHAL-STRASSE,GANDERKESEE,,DE,,GANDERKESEE-ATLAS,EDWQ
11301750518,52.28998,7.970749,,ZUM FLUGPLATZ 88,OSNABRÜCK,,DE,,OSNABRÜCK-ATTERHEIDE,EDWO
11301750519,52.458281,7.172601,,FLUGPLATZSTRASSE,NORDHORN,,DE,,NORDHORN-LINGEN,EDWN
11301750520,53.74422,7.488235,,FLUGHAFENSTRASSE,LANGEOOG,,DE,,LANGEOOG,LGO
11301750521,53.50933,8.05088,,WILHELMSHAVENERSTRASSE,SANDE,,DE,,WILHELMSHAVEN MARIENSIEL,WVN
11301750522,53.27125,7.45834,,KLOSTER-THEDINGA-STRASSE,LEER (OSTFRIESLAND),,DE,,LEER-PAPENBURG,EDWF
11301750523,53.386722,7.227003,,A31,EMDEN,,DE,,EMDEN,EME
11301750524,53.510141,8.564188,,AM LUNEORT,BREMERHAVEN,,DE,,BREMERHAVEN LUNEORT,BRV
11301750525,53.15426,8.617489,,DEICHSTRASSE,LEMWERDER,,DE,,LEMWERDER,XLW
11301750526,52.218972,8.865729,,FLUGHAFEN,PORTA WESTFALICA,,DE,,PORTA WESTFALICA,EDVY
11301750527,52.17302,9.95477,,JUNKERSSTRASSE,HILDESHEIM,,DE,,HILDESHEIM,ZNO
11301750528,51.40285,9.37707,,FLUGPLATZSTRASSE,CALDEN,,DE,,KASSEL-CALDEN,KSF
11301750529,51.804988,9.354524,,LANGEWEISE,HÖXTER,,DE,,HÖXTER/HOLZMINDEN,EDVI
11301750530,52.31458,10.55976,,HERMANN-BLENK-STRASSE,BRAUNSCHWEIG,,DE,,BRAUNSCHWEIG,BWE
11301750531,52.0,12.117088,,L55,ZERBST,,DE,,ZERBST,EDUZ
11301750532,53.92058,13.23266,,FLUGHAFENRING,TUTOW,,DE,,TUTOW,EDUW
11301750533,52.995826,13.544539,,REIHENSTRASSE,TEMPLIN,,DE,,GROSS DOLIN,EDUT
11301750534,51.63389,13.68167,,KIRCHAINERSTRASSE,FINSTERWALDE,,DE,,FINSTERWALDE,EDUS
11301750535,51.55009,13.22789,,LÖNNEWITZERSTRASSE,LÖNNEWITZ,,DE,,FALKENBERG LÖNNEWITZ,EDUF
11301750536,52.419004,12.458657,,B1,BRANDENBURG AN DER HAVEL,,DE,,BRANDENBURG BRIEST,BBI
11301750537,47.68351,9.13084,,REICHENAUSTRASSE,KONSTANZ,,DE,,KONSTANZ,EDTZ
11301750538,49.112,9.78258,,EUROPAPLATZ,SCHWÄBISCH HALL,,DE,,SCHWÄBISCH HALL,EDTY
11301750539,48.45451,7.92295,,AM FLUGPLATZ,OFFENBURG,,DE,,OFFENBURG,EDTO
11301750540,47.56292,7.74406,,L139,RHEINFELDEN,,DE,,HERTEN,EDTR
11301750541,48.0574,9.37262,,AM FLUGPLATZ,MENGEN,,DE,,MENGEN,EDTM
11301750542,48.35268,7.8258,,EUROPASTRASSE,LAHR,,DE,,VERKEHRSLANDEPLATZ,LHA
11301750543,48.98491,8.33131,,BUNDESTRASSE,RHEINSTETTEN,,DE,,KARLSRUHE-FORCHHEIM,EDTK
11301750544,47.90064,7.6329,,K4942,ESCHBACH,,DE,,BREMGARTEN,EDTG
11301750545,48.023431,7.839431,,HERMANN-MITSCH-STRASSE,FREIBURG IM BREISGAU,,DE,,FREIBURG IM BREISGAU,QFB
11301750546,48.76787,8.09557,,K3761,SINZHEIM,,DE,,BADEN-AIRPARK,ZCC
11301750547,47.97481,8.51426,,AM FLUGPLATZ,DONAUESCHINGEN,,DE,,DONAUESCHINGEN-VILLINGEN,DVI
11301750548,47.971283,8.907248,,B311,NEUHAUSEN OB ECK,,DE,,NEUHAUSEN OB ECK,EDSN
11301750549,48.79333,8.19315,,FLUGSTRASSE,BADEN-BADEN,,DE,,BADEN BADEN,FKB
11301750550,49.21846,7.39872,,EUROPA ALLEE,ZWEIBRÜCKEN,,DE,,ZWEIBRÜCKEN,ZQW
11301750551,49.30584,8.45713,,JOACHIM-BECHER-STRASSE,SPEYER,,DE,,SPEYER,ZQC
11301750552,49.86379,6.78012,,L47,FÖHREN,,DE,,TRIER FÖHREN,ZQF
11301750553,50.31868,7.51391,,AUGUST-HORCH-STRASSE,WINNINGEN,,DE,,KOBLENZ WINNINGEN,EDRK
11301750554,49.14128,8.40189,,REITACKERWEG,HOCHSTETTEN,,DE,,LINKENHEIM,EDRI
11301750555,49.94542,6.54426,,FLUGPLATZSTRASSE,BITBURG,,DE,,BITBURG,EDRB
11301750556,50.01987,10.52132,,FLUGPLATZSTRASSE,HASSFURT,,DE,,HASSFURT,XXX
11301750557,50.28621,11.86496,,HOS37,HOF,,DE,,HOF-PLAUEN,HOQ
11301750558,49.79528,11.12824,,F041,EBERMANNSTADT,,DE,,BURG FEUERSTEIN,EDQE
11301750559,49.983371,11.643913,,FLUGPLATZSTRASSE,BINDLACH,,DE,,BAYREUTH,BYU
11301750560,48.78336,10.27356,,L1084,NERESHEIM,,DE,,ELCHINGEN,EDPA
11301750561,53.43787,11.78691,,L09,PARCHIM,,DE,,SCHWERIN PARCHIM,SZW
11301750562,52.63426,11.83708,,OSTERBURGERSTRASSE,STENDAL,,DE,,STENDAL BORSTEL,ZSN
11301750563,53.060401,13.29006,,KIRCHSTRASSE,TROLLENHAGEN,,DE,,NEUHARDENBERG,EDON
11301750564,47.668867,9.517372,,K7791,FRIEDRICHSHAFEN,,DE,,FRIEDRICHSHAFEN,FDH
11301750565,47.85626,10.0076,,FLUGPLATZ,LEUTKIRCH IN ALLGAÜ,,DE,,LEUTKIRCH UNTERZEIL,EDNL
11301750566,48.63853,13.18914,,SCHMALHOF,VILSHOFEN,,DE,,VILSHOFEN,EDMV
11301750567,48.902422,12.527243,,FLUGPLATZSTRASSE,ATTING,,DE,,STRAUBING-WALLMÜHLE,RBM
11301750568,48.42403,12.3446,,B388,ACHLDORF,BAYERN,DE,,VILSBIBURG,EDMP
11301750569,48.08645,11.27734,,MÜNCHENERSTRASSE,WESSLING,,DE,,OBERPFAFFENHOFEN,OBF
11301750570,48.51727,12.037201,,FLUGPLATZSTRASSE,LANDSHUT,,DE,,LANDSHUT ELLERMÜHLE,EDML
11301750571,47.696,10.34201,,WEIDACHER STRASSE,DURACH,,DE,,KEMPTEN DARACH,EDMK
11301750572,48.39778,12.73086,,B388,EGGENFELDEN,,DE,,EGGENFELDEN,EDME
11301750573,48.11875,9.771,,FLUGPLATZSTRASSE,WARTHAUSEN,,DE,,BIBERACH AN DER RISS,EDMB
11301750574,48.42096,10.91992,,FLUGHAFENSTRASSE,AFFING,,DE,,MÜHLHAUSEN,AGB
11301750575,51.512249,7.616521,,NORDSTRASSE,DORTMUND,,DE,,DORTMUND,DTM
11301750576,51.599,6.15093,,FLUGHAFEN-RING,WEEZE,,DE,,NIEDERRHEIN,NRN
11301750577,51.99776,6.85062,,K20,STADTLOHN,,DE,,STADTLOHN WENNINGFELD,EDLS
11301750578,51.68559,8.779191,,HUSENERSTRASSE,PADERBORN,,DE,,HAXTERBERG,EDLR
11301750579,51.61015,8.621502,,HELLWEG,BÜREN,,DE,,LIPPSTADT,PAD
11301750580,51.230749,6.491758,,FLUGHAFENSTRASSE,MÖNCHENGLADBACH,,DE,,MÖNCHENGLADBACH,MGL
11301750581,51.647668,7.15701,,HÜLSSTRASSE,MARL,,DE,,LOEMÜHLE,EDLM
11301750582,51.96583,8.551051,,AM FLUGPLATZ,BIELEFELD,,DE,,BIELEFELD-WINDELSBLEICHE,EDLI
11301750583,51.69289,6.11077,,AM SEGELFLUGPLATZ,GOCH,,DE,,ASPERDEN,EDLG
11301750584,51.40796,6.938152,,ZEPPELINSTRASSE 325,MÜLHEIM AN DER RUHR,,DE,,ESSEN-MÜLHEIM,ESS
11301750585,51.48353,7.90172,,K22,ARNSBERG,,DE,,ARNSBERG-MENDEN,EDLA
11301750586,50.40254,6.53115,,K74,DAHLEM,,DE,,DAHLEMER BINZ,EDKV
11301750587,51.09967,7.603,,STEINSMARK 1,MEINSERZHAGEN,,DE,,MEINERZHAGEN,EDKZ
11301750588,47.9908,10.2208,,SCHLEIFWEG,MEMMINGEN ALLGAU,,DE,,ALLGAU,EDJA
11301750589,54.079849,9.957055,,STETTINERSTRASSE,NEUMÜNSTER,,DE,,NEUMÜNSTER,EUM
11301750590,53.804139,10.698393,,AM FLUGPLATZ,LÜBECK,,DE,,LÜBECK-BLANKENSEE,LBC
11301750591,54.38446,10.14395,,BOELCKESTRASSE,KIEL,,DE,,KIEL-HOLTENAU,KEL
11301750592,53.53654,9.84744,,NEISSDEICH 181,HAMBURG,,DE,,HAMBURG FINKENWERDER,XFW
11301750593,50.70472,8.07365,,FLUGHAFENSTRASSE,BURBACH,,DE,,SIEGERLAND,SGE
11301750594,50.99811,10.46856,,FLUGHAFENSTRASSE,HÖRSELBERG,,DE,,EISENACH KINDEL,EIB
11301750595,49.97853,8.14321,,FLUGPLATZSTRASSE,MAINZ,,DE,,MAINZ FINTHEN,EDFZ
11301750596,51.03525,8.67581,,GOLDBERG,ALLENDORF,,DE,,ALLENDORF EDER,EDFQ
11301750597,49.60408,8.36652,,K7,WORMS,,DE,,WORMS,ZQV
11301750598,49.47623,8.5238,,CARLO-SCHMID-BRÜCKE,MANNHEIM,,DE,,MANNHEIM CITY,MHG
11301750599,49.94052,7.26909,,AM FLUGPLATZ,LAUTZENHAUSEN,,DE,,FRANKFURT-HAHN,HHN
11301750600,49.94407,8.642,,HANS-FLEISSNER-STRASSE,EGELSBACH,HESSE,DE,,EGELSBACH,EDFE
11301750601,49.93893,9.05464,,BABENHAUSERSTRASSE,GROSSOSTHEIM,,DE,,ASCHAFFENBURG,EDFC
11301750602,53.05753,8.78602,,FLUGHAFENDAMM,BREMEN,,DE,,BREMEN,BRE
11301750603,52.458731,9.70718,,FLUGHAFENSTRASSE,LANGENHAGEN,,DE,,HANNOVER AIRPORT,HAJ
11301750604,52.54806,13.29684,,SAATWINKLER DAMM,BERLIN,,DE,,BERLIN-TEGEL,TXL
11301750605,48.690363,9.18492,,FLUGHAFENSTRASSE,STUTTGART,,DE,,STUTTGART,STR
11301750606,51.42412,12.22393,,A14,SCHKEUDITZ,,DE,,LEIPZIG-HALLE,LEJ
11301750607,49.22127,7.11277,,BALTHASAR-GOLDSTEIN-STRASSE,SAARBRÜCKEN,,DE,,SAARBRÜCKEN,SCN
11301750608,49.49214,11.08333,,FLUGHAFENSTRASSE,NÜRNBERG,,DE,,NÜRNBERG,NUE
11301750609,48.35221,11.75841,,ZENTRALALLEE,FREISING,,DE,,FRANZ JOSEF STRAUSS,MUC
11301750610,51.27768,6.77107,,KALKUMER STRASSE,DÜSSELDORF,,DE,,DÜSSELDORF,DUS
11301750611,50.88222,7.10921,,L84,KÖLN,,DE,,KÖLN,CGN
11301750612,52.48328,13.38722,,PLATZ DER LUFTBRÜCKE,BERLIN,,DE,,TEMPELHOF,THF
11301750613,53.63341,10.00637,,FLUGHAFENSTRASSE,HAMBURG,,DE,,HAMBURG AIRPORT,HAM
11301750614,52.12953,7.68939,,FLUGHAFENSTRASSE,GREVEN,,DE,,MÜNSTER-OSNABRÜCK,FMO
11301750615,50.97299,10.964973,,AM FLUGHAFEN,ERFURT,,DE,,ERFURT,ERF
11301750616,50.04791,8.55439,,AIRPORT RING,FRANKFURT AM MAIN,HESSE,DE,,FRANKFURT MAIN,FRA
11301750617,51.12069,13.76341,,FLUGHAFENSTRASSE,DRESDEN,,DE,,DRESDEN,DRS
11301750618,52.39132,13.516133,,FLUGHAFEN SCHÖNEFELD,SCHÖNEFELD,,DE,,BERLIN-SCHÖNEFELD,SXF
11301750619,51.58648,14.15926,,DR-SENST-STRASSE,WELZOW,,DE,,WELZOW,EDCY
11301750620,51.15115,13.77645,,FLUGHAFENRING,PEENEMÜNDE,,DE,,PEENEMÜNDE,PEF
11301750621,51.26193,10.63549,,L2096,OBERMEHLER,,DE,,OBERMEHLER SCHLOTHEIM,EDCO
11301750622,51.30295,14.12706,,DEUTSCHBASELITZERWEG,KAMENZ,,DE,,KAMENZ,EDCM
11301750623,51.88305,14.53593,,FLUGPLATZSTRASSE,JÄNSCHWALDE,,DE,,COTTBUS DREWITZ,EDCD
11301750624,53.83701,13.67926,,AM FLUGPLATZ,ANKLAM,,DE,,ANKLAM,EDCA
11301750625,52.63613,13.74562,,FREIENWALDER CHAUSSEE,WERNEUCHEN,,DE,,WERNEUCHEN,EDBW
11301750626,51.38905,11.450173,,L219,ALLSTEDT,,DE,,ALLSTEDT,EDBT
11301750627,51.33248,12.61464,,WALDSTRASSE,BRANDIS,,DE,,BRANDIS MACHEM,EDBN
11301750628,51.36187,14.96343,,FRIEDENSSTRASSE,ROTHENBURG,,DE,,ROTHENBURG GÖRLITZ,QTK
11301750629,52.07873,11.67265,,OTTERSLEBER CHAUSSEE,MAGDEBURG,,DE,,MAGDEBURG,ZMG
11301750630,52.9154,12.43555,,B5,KYRITZ,,DE,,KYRITZ,EDBK
11301750631,50.91522,11.7197,,FLUGPLATZ,SCHÖNGLEINA,,DE,,SCHÖNGLEINA,EDBJ
11301750632,54.33571,12.7171,,FLUGHAFENSTRASSE,DIVITZ-SPOLDERSHAGEN,,DE,,STRALSUND-BARTH,BBH
11301750633,52.20805,13.1516,,AM FLUGPLATZ,TREBBIN,,DE,,SCHÖNHAGEN,EDAZ
11301750634,52.58736,13.91127,,AM FLUGPLATZ,STRAUSBERG,,DE,,STRAUSBERG,EDAY
11301750635,52.82919,13.72097,,BIESENTHALERSTRASSE,EBERSWALDE,,DE,,FINOW,EDAV
11301750636,53.30322,12.73358,,K3,LÄRZ,,DE,,RECHLIN LÄRZ,REB
11301750637,51.3602,13.26172,,S88,ZEITHAIN,,DE,,RIESA GÖHLIS,IES
11301750638,51.54696,12.05827,,FLUGPLATZ 6,OPPIN,,DE,,HALLE OPPIN,EDAQ
11301750639,51.36321,11.96859,,HANS-GRADE-STRASSE,MERSEBURG,,DE,,MERSEBURGER,EDAM
11301750640,51.30356,13.54636,,ZUM FLIEGERHORST,GROSSENHAIN,,DE,,GROSSENHAIN,EDAK
11301750641,50.88243,12.13119,,RONNEBURGER STRASSE,GERA,,DE,,GERA-LEUMNITZ,EDAJ
11301750642,53.881871,14.128823,,AM FLUGHAFEN,ZIRCHOW,,DE,,HERINGSDORF,HDF
11301750643,52.19311,14.60012,,MÜLLROSERSTRASSE,EISENHÜTTENSTADT,,DE,,EISENHÜTTENSTADT,EDAE
11301750644,51.83547,12.17817,,ALTE LANDEBAHN,DESSAU,,DE,,DESSAU,ZSU
11301750645,50.97467,12.51761,,L2460,NOBITZ,,DE,,ALTENBURG-NOBITZ,AOC
11301750646,51.258,4.76725,,BLOMMERSCHOT,MALLE,,BE,,ZOERSEL,OBL
11301750647,51.18873,14.25031,,NEUPURSCHWITZ,KUBSCHÜTZ,,DE,,BAUTZEN,EDAB
11301750648,51.3998,4.966,,GEENEINDE,RAVELS,,BE,,WEELDE,EBWE
11301750649,51.1433,3.48406,,BRUGSTRAAT,KNESSELARE,,BE,,URSEL,EBUL
11301750650,50.80271,5.20409,,N3,SINT TRUIDEN,,BE,,SINT TRUIDEN,EBST
11301750651,50.95815,5.57425,,EINDSTRAAT,ZUTENDAAL,,BE,,ZUTENDAAL,EBSL
11301750652,51.20653,2.86992,,NIEUWPOORTSESTEENWEG,OOSTENDE,,BE,,OOSTENDE-BRUGES,OST
11301750653,50.64085,5.45981,,RUE DE L'AEROPORT,GRACE-HOLLOGNE,,BE,,LIEGE,LGG
11301750654,50.8177,3.21439,,KORTRIJKSTRAAT 345,WEVELGEM,,BE,,KORTRIJK WEVELGEM,KJK
11301750655,50.23111,4.67641,,N97,FLORENNES,,BE,,FLORENNES,EBFS
11301750656,50.57799,3.86246,,N56,LENS,,BE,,CHIEVRES AB,EBCV
11301750657,51.10457,2.69021,,LANGELEEDSTRAAT,KOKSIJDE,,BE,,KOKSIJDE,EBFN
11301750658,50.457061,4.454614,,RUE DES FUSILLES,CHARLEROI,,BE,,BRUSSELS SOUTH,CRL
11301750659,49.88028,5.215434,,DUE DE LA HALE,BERTRIX,,BE,,BERTRIX,EBBX
11301750660,51.17355,5.45937,,N747,PEER,,BE,,KLEINE BROGEL,EBBL
11301750661,50.89385,4.47353,,LEOPOLD III-LAAN,ZAVENTEM,,BE,,NATIONAL ZAVENTEM,BRU
11301750662,50.75692,4.78051,,RUE LONGUE,BEAUVECHAIN,,BE,,BEAUVECHAIN,EBBE
11301750663,51.18894,4.45053,,LUCHTHAVENLEI,ANTWERPEN,,BE,,LUCHTHAVEN ANTWERPEN,ANR
11305550392,53.58981,-7.64422,,Cloonbrin,ABBEYSHRULE,,IE,,ABBEYSHRULE,EIAB
11305550393,51.66815,-9.483898,,Cappanaloha Beach,BANTRY,,IE,,BANTRY,BYT
11305550394,54.22003,-10.0319,,Emlybeg North of R313,BALLINA,,IE,,BELMULLET,BLY
11305550395,53.07072,-7.90019,,off Roscrea Road,BIRR,,IE,,BIRR,EIBR
11305550396,53.30312,-8.94178,,R339,GALWAY,,IE,,CARNMORE,GWY
11305550397,53.291706,-6.437663,,N71,BALDONNEL,,IE,,CASEMENT,EIME
11305550398,53.848333,-9.280278,,N60,CASTLEBAR,,IE,,CASTLEBAR,CLB
11305550399,53.23211,-9.47002,,Faitle,SPIDDAL,,IE,,CONNEMARA,NNR
11305550400,51.84783,-8.48263,,Avenue 2000,CORK,,IE,,CORK,ORK
11305550401,55.037,-8.34056,,Braade,MULLAGHDUFF,,IE,,DONEGAL,CFN
11305550402,53.42833,-6.23193,,N1,DUBLIN,,IE,,DUBLIN,DUB
11305550403,53.57183,-6.73972,,R161,TRIM,,IE,,TRIM,EITM
11305550404,53.06953,-6.85032,,Rock,KILMEAD,,IE,,KILRUSH,EIKH
11305550405,52.18194,-9.53738,,N23,KERRY,,IE,,FARRANFORE,KIR
11305550406,53.059,-9.506,,,ARAN ISLAND,,IE,,INISHEER,INQ
11305550407,53.092,-9.57,,,ARAN ISLAND,,IE,,INISHMAAN,IIA
11305550408,53.107,-9.653,,,ARAN ISLAND,,IE,,INISHMORE,IOR
11305550409,52.65204,-7.29548,,Holdensrath,KILKENNY,,IE,,KILKENNY,KKY
11305550410,53.91481,-8.81775,,R376,CONNAUGHT,,IE,,KNOCK,NOC
11305550411,54.951,-7.672,,,,,IE,,LETTERKENNY,LTR
11305550412,53.07138,-6.04383,,Sea Road,WICKLOW,,IE,,NEWCASTLE,EINC
11305550413,52.70322,-8.89408,,N19,SHANNON,,IE,,SHANNON,SNN
11305550414,54.27107,-8.60204,,R292,SLIGO,,IE,,SLIGO,SXL
11305550415,52.18768,-7.07863,,R708,WATERFORD,,IE,,WATERFORD,WAT
11305550416,53.34862,-6.49001,,R403,,,IE,,WESTON,EIWT
11305550417,43.72586,7.41993,,98000 Monaco,FONTVIEILLE,MONACO,MC,,MONTE CARLO HELIPORT,MCM
